{"type": "FeatureCollection", "features": [{"type": "Feature", "id": 1, "geometry": {"type": "Point", "coordinates": [-73.129563, 42.623777]}, "properties": {"Line_No": 4, "System_ID": "ADA-15-GS", "Street_Name": "Mooney Ave", "From_": "Melrose St", "To_": "Dead End", "City_Town": "Adams", "Current_Material": "NCPCS", "Replacement_Material___Action": "HDPE", "DIMP_Primary": "C", "DIMP_Sub": "CSNCP", "DIMP_Risk": 1, "F2__Replacement__ft_": 141, "F4__Replacement__ft_": null, "F6__Replacement__ft_": null, "F8__Replacement__ft_": null, "F12__Replacement__ft_": null, "Total_Main_Replacement___Abando": 141, "GSEP_Eligible_Infrastructure__f": 141, "Incidental_Pipe_Infrastructure_": 0, "Incidental_Pipe_Percentage__ft_": "0%", "Service_Replacements": 0, "Service_Trfr": 0, "Total_Project_Costs": "$35,688", "NPA_Potential_": "Pend\r", "lat": 42.623777, "lon": -73.129563, "Mapped_address": "Melrose St, Adams, MA, USA", "FID": 1}}, {"type": "Feature", "id": 2, "geometry": {"type": "Point", "coordinates": [-73.1218236, 42.6212836]}, "properties": {"Line_No": 1, "System_ID": "ADA-15-GS", "Street_Name": "Bobs Hill", "From_": "Forest Park Ave", "To_": "Dead End", "City_Town": "Adams", "Current_Material": "NCPCS", "Replacement_Material___Action": "HDPE", "DIMP_Primary": "C", "DIMP_Sub": "CSNCP", "DIMP_Risk": 1, "F2__Replacement__ft_": 804, "F4__Replacement__ft_": null, "F6__Replacement__ft_": null, "F8__Replacement__ft_": null, "F12__Replacement__ft_": null, "Total_Main_Replacement___Abando": 804, "GSEP_Eligible_Infrastructure__f": 804, "Incidental_Pipe_Infrastructure_": 0, "Incidental_Pipe_Percentage__ft_": "0%", "Service_Replacements": 1, "Service_Trfr": 12, "Total_Project_Costs": "$238,694", "NPA_Potential_": "Pend\r", "lat": 42.6212836, "lon": -73.1218236, "Mapped_address": "Bobs Hill, Adams, MA 01220, USA", "FID": 2}}, {"type": "Feature", "id": 3, "geometry": {"type": "Point", "coordinates": [-73.1221888, 42.6232426]}, "properties": {"Line_No": 2, "System_ID": "ADA-15-GS", "Street_Name": "Marmon Ave", "From_": "Bobs Hl", "To_": "Melrose St", "City_Town": "Adams", "Current_Material": "NCPCS", "Replacement_Material___Action": "HDPE", "DIMP_Primary": "C", "DIMP_Sub": "CSNCP", "DIMP_Risk": 1, "F2__Replacement__ft_": 370, "F4__Replacement__ft_": null, "F6__Replacement__ft_": null, "F8__Replacement__ft_": null, "F12__Replacement__ft_": null, "Total_Main_Replacement___Abando": 370, "GSEP_Eligible_Infrastructure__f": 370, "Incidental_Pipe_Infrastructure_": 0, "Incidental_Pipe_Percentage__ft_": "0%", "Service_Replacements": 0, "Service_Trfr": 0, "Total_Project_Costs": "$74,217", "NPA_Potential_": "Pend\r", "lat": 42.6232426, "lon": -73.1221888, "Mapped_address": "Marmon St, Adams, MA 01220, USA", "FID": 3}}, {"type": "Feature", "id": 4, "geometry": {"type": "Point", "coordinates": [-73.124631, 42.6236719]}, "properties": {"Line_No": 3, "System_ID": "ADA-15-GS", "Street_Name": "Melrose St", "From_": "Gilead St", "To_": "Maple St", "City_Town": "Adams", "Current_Material": "NCPCS", "Replacement_Material___Action": "HDPE", "DIMP_Primary": "C", "DIMP_Sub": "CSNCP", "DIMP_Risk": 1, "F2__Replacement__ft_": 1487, "F4__Replacement__ft_": null, "F6__Replacement__ft_": null, "F8__Replacement__ft_": null, "F12__Replacement__ft_": null, "Total_Main_Replacement___Abando": 1487, "GSEP_Eligible_Infrastructure__f": 1487, "Incidental_Pipe_Infrastructure_": 0, "Incidental_Pipe_Percentage__ft_": "0%", "Service_Replacements": 4, "Service_Trfr": 31, "Total_Project_Costs": "$509,929", "NPA_Potential_": "Pend\r", "lat": 42.6236719, "lon": -73.124631, "Mapped_address": "Melrose St, Adams, MA 01220, USA", "FID": 4}}, {"type": "Feature", "id": 5, "geometry": {"type": "Point", "coordinates": [-73.1211812, 42.6234866]}, "properties": {"Line_No": 5, "System_ID": "ADA-15-GS", "Street_Name": "Senecal Ter", "From_": "Melrose St", "To_": "Dead End", "City_Town": "Adams", "Current_Material": "NCPCS", "Replacement_Material___Action": "HDPE", "DIMP_Primary": "C", "DIMP_Sub": "CSNCP", "DIMP_Risk": 1, "F2__Replacement__ft_": 155, "F4__Replacement__ft_": null, "F6__Replacement__ft_": null, "F8__Replacement__ft_": null, "F12__Replacement__ft_": null, "Total_Main_Replacement___Abando": 155, "GSEP_Eligible_Infrastructure__f": 155, "Incidental_Pipe_Infrastructure_": 0, "Incidental_Pipe_Percentage__ft_": "0%", "Service_Replacements": 0, "Service_Trfr": 1, "Total_Project_Costs": "$44,987", "NPA_Potential_": "Pend\r", "lat": 42.6234866, "lon": -73.1211812, "Mapped_address": "Senecal Terrace, Adams, MA 01220, USA", "FID": 5}}, {"type": "Feature", "id": 6, "geometry": {"type": "Point", "coordinates": [-73.124997, 42.624951]}, "properties": {"Line_No": 6, "System_ID": "ADA-15-GS", "Street_Name": "Gilead St", "From_": "Melrose St", "To_": "Maple St", "City_Town": "Adams", "Current_Material": "NCPCS", "Replacement_Material___Action": "HDPE", "DIMP_Primary": "C", "DIMP_Sub": "CSNCP", "DIMP_Risk": 1, "F2__Replacement__ft_": 901, "F4__Replacement__ft_": null, "F6__Replacement__ft_": null, "F8__Replacement__ft_": null, "F12__Replacement__ft_": null, "Total_Main_Replacement___Abando": 901, "GSEP_Eligible_Infrastructure__f": 901, "Incidental_Pipe_Infrastructure_": 0, "Incidental_Pipe_Percentage__ft_": "0%", "Service_Replacements": 3, "Service_Trfr": 4, "Total_Project_Costs": "$215,716", "NPA_Potential_": "Pend\r", "lat": 42.624951, "lon": -73.124997, "Mapped_address": "Gilead St, Adams, MA 01220, USA", "FID": 6}}, {"type": "Feature", "id": 7, "geometry": {"type": "Point", "coordinates": [-73.1250966, 42.6210711]}, "properties": {"Line_No": 7, "System_ID": "ADA-15-GS", "Street_Name": "Forest Park Ave", "From_": "Melrose St", "To_": "Bobs Hl", "City_Town": "Adams", "Current_Material": "CI", "Replacement_Material___Action": "HDPE", "DIMP_Primary": "NF,O", "DIMP_Sub": "F,BJ", "DIMP_Risk": 64, "F2__Replacement__ft_": 610, "F4__Replacement__ft_": null, "F6__Replacement__ft_": null, "F8__Replacement__ft_": null, "F12__Replacement__ft_": null, "Total_Main_Replacement___Abando": 610, "GSEP_Eligible_Infrastructure__f": 590, "Incidental_Pipe_Infrastructure_": 20, "Incidental_Pipe_Percentage__ft_": "3%", "Service_Replacements": 2, "Service_Trfr": 16, "Total_Project_Costs": "$241,957", "NPA_Potential_": "Pend\r", "lat": 42.6210711, "lon": -73.1250966, "Mapped_address": "Forest Park Ave, Adams, MA 01220, USA", "FID": 7}}, {"type": "Feature", "id": 8, "geometry": {"type": "Point", "coordinates": [-72.5903637, 42.596393]}, "properties": {"Line_No": 8, "System_ID": "GFD-10-GS", "Street_Name": "High St *", "From_": "Maple St", "To_": "Riddell St", "City_Town": "Greenfield", "Current_Material": "CI", "Replacement_Material___Action": "HDPE", "DIMP_Primary": "NF,O", "DIMP_Sub": "F,BJ", "DIMP_Risk": 64, "F2__Replacement__ft_": 2149, "F4__Replacement__ft_": null, "F6__Replacement__ft_": null, "F8__Replacement__ft_": null, "F12__Replacement__ft_": null, "Total_Main_Replacement___Abando": 2149, "GSEP_Eligible_Infrastructure__f": 2149, "Incidental_Pipe_Infrastructure_": 0, "Incidental_Pipe_Percentage__ft_": "0%", "Service_Replacements": 9, "Service_Trfr": 23, "Total_Project_Costs": "$692,232", "NPA_Potential_": "Pend\r", "lat": 42.596393, "lon": -72.5903637, "Mapped_address": "High St, Greenfield, MA 01301, USA", "FID": 8}}, {"type": "Feature", "id": 9, "geometry": {"type": "Point", "coordinates": [-72.5944134, 42.5947376]}, "properties": {"Line_No": 9, "System_ID": "GFD-10-GS", "Street_Name": "North St *", "From_": "Maple St", "To_": "#19 North St", "City_Town": "Greenfield", "Current_Material": "CI", "Replacement_Material___Action": "HDPE", "DIMP_Primary": "NF,O", "DIMP_Sub": "F,BJ", "DIMP_Risk": 64, "F2__Replacement__ft_": 150, "F4__Replacement__ft_": null, "F6__Replacement__ft_": null, "F8__Replacement__ft_": null, "F12__Replacement__ft_": null, "Total_Main_Replacement___Abando": 150, "GSEP_Eligible_Infrastructure__f": 150, "Incidental_Pipe_Infrastructure_": 0, "Incidental_Pipe_Percentage__ft_": "0%", "Service_Replacements": 0, "Service_Trfr": 32, "Total_Project_Costs": "$293,204", "NPA_Potential_": "Pend\r", "lat": 42.5947376, "lon": -72.5944134, "Mapped_address": "North St, Greenfield, MA 01301, USA", "FID": 9}}, {"type": "Feature", "id": 10, "geometry": {"type": "Point", "coordinates": [-72.5931264, 42.5922759]}, "properties": {"Line_No": 10, "System_ID": "GFD-10-GS", "Street_Name": "Maple St *", "From_": "Federal St", "To_": "High St", "City_Town": "Greenfield", "Current_Material": "CI", "Replacement_Material___Action": "HDPE", "DIMP_Primary": "NF,O", "DIMP_Sub": "F,BJ", "DIMP_Risk": 64, "F2__Replacement__ft_": 926, "F4__Replacement__ft_": null, "F6__Replacement__ft_": null, "F8__Replacement__ft_": null, "F12__Replacement__ft_": null, "Total_Main_Replacement___Abando": 926, "GSEP_Eligible_Infrastructure__f": 926, "Incidental_Pipe_Infrastructure_": 0, "Incidental_Pipe_Percentage__ft_": "0%", "Service_Replacements": 0, "Service_Trfr": 13, "Total_Project_Costs": "$294,663", "NPA_Potential_": "Pend\r", "lat": 42.5922759, "lon": -72.5931264, "Mapped_address": "Maple St, Greenfield, MA 01301, USA", "FID": 10}}, {"type": "Feature", "id": 11, "geometry": {"type": "Point", "coordinates": [-73.1060913, 42.6991782]}, "properties": {"Line_No": 11, "System_ID": "NAD-13-GS", "Street_Name": "Willow Dell *", "From_": "Miner St", "To_": "Union St", "City_Town": "North Adams", "Current_Material": "NCPCS", "Replacement_Material___Action": "HDPE", "DIMP_Primary": "C", "DIMP_Sub": "CSNCP", "DIMP_Risk": 1, "F2__Replacement__ft_": null, "F4__Replacement__ft_": null, "F6__Replacement__ft_": 993, "F8__Replacement__ft_": null, "F12__Replacement__ft_": null, "Total_Main_Replacement___Abando": 993, "GSEP_Eligible_Infrastructure__f": 993, "Incidental_Pipe_Infrastructure_": 0, "Incidental_Pipe_Percentage__ft_": "0%", "Service_Replacements": 0, "Service_Trfr": 8, "Total_Project_Costs": "$544,165", "NPA_Potential_": "Pend\r", "lat": 42.6991782, "lon": -73.1060913, "Mapped_address": "Willow Dell, North Adams, MA 01247, USA", "FID": 11}}, {"type": "Feature", "id": 12, "geometry": {"type": "Point", "coordinates": [-73.1151344, 42.702778]}, "properties": {"Line_No": 12, "System_ID": "NAD-14-GS", "Street_Name": "River St *", "From_": "Houghton St", "To_": "Eagle St", "City_Town": "North Adams", "Current_Material": "CI", "Replacement_Material___Action": "HDPE", "DIMP_Primary": "NF,O", "DIMP_Sub": "F,BJ", "DIMP_Risk": 64, "F2__Replacement__ft_": null, "F4__Replacement__ft_": null, "F6__Replacement__ft_": null, "F8__Replacement__ft_": 1754, "F12__Replacement__ft_": null, "Total_Main_Replacement___Abando": 1754, "GSEP_Eligible_Infrastructure__f": 1754, "Incidental_Pipe_Infrastructure_": 0, "Incidental_Pipe_Percentage__ft_": "0%", "Service_Replacements": 0, "Service_Trfr": 23, "Total_Project_Costs": "$1,020,057", "NPA_Potential_": "Pend\r", "lat": 42.702778, "lon": -73.1151344, "Mapped_address": "River St, North Adams, MA 01247, USA", "FID": 12}}, {"type": "Feature", "id": 13, "geometry": {"type": "Point", "coordinates": [-73.0972153, 42.7053391]}, "properties": {"Line_No": 13, "System_ID": "NAD-24-GS", "Street_Name": "East Ave", "From_": "Glen Ave", "To_": "Citation Ave", "City_Town": "North Adams", "Current_Material": "NCPCS", "Replacement_Material___Action": "HDPE", "DIMP_Primary": "C", "DIMP_Sub": "CSNCP", "DIMP_Risk": 1, "F2__Replacement__ft_": null, "F4__Replacement__ft_": 1729, "F6__Replacement__ft_": null, "F8__Replacement__ft_": null, "F12__Replacement__ft_": null, "Total_Main_Replacement___Abando": 1729, "GSEP_Eligible_Infrastructure__f": 1703, "Incidental_Pipe_Infrastructure_": 26, "Incidental_Pipe_Percentage__ft_": "2%", "Service_Replacements": 0, "Service_Trfr": 19, "Total_Project_Costs": "$552,777", "NPA_Potential_": "Pend\r", "lat": 42.7053391, "lon": -73.0972153, "Mapped_address": "East Ave, North Adams, MA 01247, USA", "FID": 13}}, {"type": "Feature", "id": 14, "geometry": {"type": "Point", "coordinates": [-73.2462499, 42.4456018]}, "properties": {"Line_No": 15, "System_ID": "PSF-NE-06-GS", "Street_Name": "Copley Ter *", "From_": "East St", "To_": "Dead End", "City_Town": "Pittsfield", "Current_Material": "BS", "Replacement_Material___Action": "HDPE", "DIMP_Primary": "C", "DIMP_Sub": "BSNCP", "DIMP_Risk": 1, "F2__Replacement__ft_": 1000, "F4__Replacement__ft_": null, "F6__Replacement__ft_": null, "F8__Replacement__ft_": null, "F12__Replacement__ft_": null, "Total_Main_Replacement___Abando": 1000, "GSEP_Eligible_Infrastructure__f": 1000, "Incidental_Pipe_Infrastructure_": 0, "Incidental_Pipe_Percentage__ft_": "0%", "Service_Replacements": 10, "Service_Trfr": 6, "Total_Project_Costs": "$346,063", "NPA_Potential_": "Pend\r", "lat": 42.4456018, "lon": -73.2462499, "Mapped_address": "Copley Terrace, Pittsfield, MA 01201, USA", "FID": 14}}, {"type": "Feature", "id": 15, "geometry": {"type": "Point", "coordinates": [-73.2452894, 42.4457181]}, "properties": {"Line_No": 16, "System_ID": "PSF-NE-06-GS", "Street_Name": "Gordon St *", "From_": "Elm St", "To_": "Dead End", "City_Town": "Pittsfield", "Current_Material": "BS", "Replacement_Material___Action": "HDPE", "DIMP_Primary": "C", "DIMP_Sub": "BSNCP", "DIMP_Risk": 1, "F2__Replacement__ft_": 900, "F4__Replacement__ft_": null, "F6__Replacement__ft_": null, "F8__Replacement__ft_": null, "F12__Replacement__ft_": null, "Total_Main_Replacement___Abando": 900, "GSEP_Eligible_Infrastructure__f": 733, "Incidental_Pipe_Infrastructure_": 167, "Incidental_Pipe_Percentage__ft_": "23%", "Service_Replacements": 6, "Service_Trfr": 5, "Total_Project_Costs": "$282,144", "NPA_Potential_": "Pend\r", "lat": 42.4457181, "lon": -73.2452894, "Mapped_address": "Gordon St, Pittsfield, MA 01201, USA", "FID": 15}}, {"type": "Feature", "id": 16, "geometry": {"type": "Point", "coordinates": [-73.242928, 42.446358]}, "properties": {"Line_No": 17, "System_ID": "PSF-NE-06-GS", "Street_Name": "Root Pl", "From_": "Elm St", "To_": "Dead End", "City_Town": "Pittsfield", "Current_Material": "NCPCS", "Replacement_Material___Action": "HDPE", "DIMP_Primary": "C", "DIMP_Sub": "CSNCP", "DIMP_Risk": 1, "F2__Replacement__ft_": 695, "F4__Replacement__ft_": null, "F6__Replacement__ft_": null, "F8__Replacement__ft_": null, "F12__Replacement__ft_": null, "Total_Main_Replacement___Abando": 695, "GSEP_Eligible_Infrastructure__f": 695, "Incidental_Pipe_Infrastructure_": 0, "Incidental_Pipe_Percentage__ft_": "0%", "Service_Replacements": 0, "Service_Trfr": 7, "Total_Project_Costs": "$177,507", "NPA_Potential_": "Pend\r", "lat": 42.446358, "lon": -73.242928, "Mapped_address": "Root Pl, Pittsfield, MA 01201, USA", "FID": 16}}, {"type": "Feature", "id": 17, "geometry": {"type": "Point", "coordinates": [-73.2469287, 42.4525612]}, "properties": {"Line_No": 18, "System_ID": "PSF-NE-07A-GS", "Street_Name": "2nd St *", "From_": "Adam St", "To_": "Fenn St", "City_Town": "Pittsfield", "Current_Material": "CI", "Replacement_Material___Action": "HDPE", "DIMP_Primary": "NF,O", "DIMP_Sub": "F,BJ", "DIMP_Risk": 64, "F2__Replacement__ft_": null, "F4__Replacement__ft_": 2554, "F6__Replacement__ft_": null, "F8__Replacement__ft_": null, "F12__Replacement__ft_": null, "Total_Main_Replacement___Abando": 2554, "GSEP_Eligible_Infrastructure__f": 2024, "Incidental_Pipe_Infrastructure_": 530, "Incidental_Pipe_Percentage__ft_": "21%", "Service_Replacements": 3, "Service_Trfr": 24, "Total_Project_Costs": "$923,701", "NPA_Potential_": "Pend\r", "lat": 42.4525612, "lon": -73.2469287, "Mapped_address": "Second St, Pittsfield, MA 01201, USA", "FID": 17}}, {"type": "Feature", "id": 18, "geometry": {"type": "Point", "coordinates": [-73.2469088, 42.4504972]}, "properties": {"Line_No": 19, "System_ID": "PSF-NE-07A-GS", "Street_Name": "Silver St", "From_": "Second St", "To_": "Third St", "City_Town": "Pittsfield", "Current_Material": "CI", "Replacement_Material___Action": "HDPE", "DIMP_Primary": "NF,O", "DIMP_Sub": "F,BJ", "DIMP_Risk": 64, "F2__Replacement__ft_": 243, "F4__Replacement__ft_": null, "F6__Replacement__ft_": null, "F8__Replacement__ft_": null, "F12__Replacement__ft_": null, "Total_Main_Replacement___Abando": 243, "GSEP_Eligible_Infrastructure__f": 243, "Incidental_Pipe_Infrastructure_": 0, "Incidental_Pipe_Percentage__ft_": "0%", "Service_Replacements": 0, "Service_Trfr": 5, "Total_Project_Costs": "$87,570", "NPA_Potential_": "Pend\r", "lat": 42.4504972, "lon": -73.2469088, "Mapped_address": "Silver St, Pittsfield, MA 01201, USA", "FID": 18}}, {"type": "Feature", "id": 19, "geometry": {"type": "Point", "coordinates": [-73.2460251, 42.450961]}, "properties": {"Line_No": 20, "System_ID": "PSF-NE-07A-GS", "Street_Name": "3rd St *", "From_": "Fenn St", "To_": "Dead End", "City_Town": "Pittsfield", "Current_Material": "CI", "Replacement_Material___Action": "HDPE", "DIMP_Primary": "NF,O", "DIMP_Sub": "F,BJ", "DIMP_Risk": 64, "F2__Replacement__ft_": 787, "F4__Replacement__ft_": null, "F6__Replacement__ft_": null, "F8__Replacement__ft_": null, "F12__Replacement__ft_": null, "Total_Main_Replacement___Abando": 787, "GSEP_Eligible_Infrastructure__f": 787, "Incidental_Pipe_Infrastructure_": 0, "Incidental_Pipe_Percentage__ft_": "0%", "Service_Replacements": 3, "Service_Trfr": 28, "Total_Project_Costs": "$412,712", "NPA_Potential_": "Pend\r", "lat": 42.450961, "lon": -73.2460251, "Mapped_address": "Third St, Pittsfield, MA 01201, USA", "FID": 19}}, {"type": "Feature", "id": 20, "geometry": {"type": "Point", "coordinates": [-73.2460251, 42.450961]}, "properties": {"Line_No": 21, "System_ID": "PSF-NE-07A-GS", "Street_Name": "Lake St (West)", "From_": "Second St", "To_": "Third St", "City_Town": "Pittsfield", "Current_Material": "CI", "Replacement_Material___Action": "HDPE", "DIMP_Primary": "NF,O", "DIMP_Sub": "F,BJ", "DIMP_Risk": 64, "F2__Replacement__ft_": 388, "F4__Replacement__ft_": null, "F6__Replacement__ft_": null, "F8__Replacement__ft_": null, "F12__Replacement__ft_": null, "Total_Main_Replacement___Abando": 388, "GSEP_Eligible_Infrastructure__f": 388, "Incidental_Pipe_Infrastructure_": 0, "Incidental_Pipe_Percentage__ft_": "0%", "Service_Replacements": 3, "Service_Trfr": 6, "Total_Project_Costs": "$143,292", "NPA_Potential_": "Pend\r", "lat": 42.450961, "lon": -73.2460251, "Mapped_address": "Lake St, Pittsfield, MA 01201, USA", "FID": 20}}, {"type": "Feature", "id": 21, "geometry": {"type": "Point", "coordinates": [-73.248453, 42.450619]}, "properties": {"Line_No": 22, "System_ID": "PSF-NE-07A-GS", "Street_Name": "Rostone Pl", "From_": "Second St", "To_": "Dead End", "City_Town": "Pittsfield", "Current_Material": "BS", "Replacement_Material___Action": "HDPE", "DIMP_Primary": "C", "DIMP_Sub": "BSNCP", "DIMP_Risk": 1, "F2__Replacement__ft_": 146, "F4__Replacement__ft_": null, "F6__Replacement__ft_": null, "F8__Replacement__ft_": null, "F12__Replacement__ft_": null, "Total_Main_Replacement___Abando": 146, "GSEP_Eligible_Infrastructure__f": 146, "Incidental_Pipe_Infrastructure_": 0, "Incidental_Pipe_Percentage__ft_": "0%", "Service_Replacements": 1, "Service_Trfr": 0, "Total_Project_Costs": "$44,656", "NPA_Potential_": "Pend\r", "lat": 42.450619, "lon": -73.248453, "Mapped_address": "Rostone Pl, Pittsfield, MA 01201, USA", "FID": 21}}, {"type": "Feature", "id": 22, "geometry": {"type": "Point", "coordinates": [-73.2473932, 42.4492767]}, "properties": {"Line_No": 23, "System_ID": "PSF-NE-07A-GS", "Street_Name": "Fenn St IP *", "From_": "Fourth St", "To_": "Second St", "City_Town": "Pittsfield", "Current_Material": "CI", "Replacement_Material___Action": "HDPE", "DIMP_Primary": "NF,O", "DIMP_Sub": "F,BJ", "DIMP_Risk": 64, "F2__Replacement__ft_": null, "F4__Replacement__ft_": 893, "F6__Replacement__ft_": null, "F8__Replacement__ft_": null, "F12__Replacement__ft_": null, "Total_Main_Replacement___Abando": 893, "GSEP_Eligible_Infrastructure__f": 748, "Incidental_Pipe_Infrastructure_": 145, "Incidental_Pipe_Percentage__ft_": "16%", "Service_Replacements": 1, "Service_Trfr": 15, "Total_Project_Costs": "$383,184", "NPA_Potential_": "Pend\r", "lat": 42.4492767, "lon": -73.2473932, "Mapped_address": "Fenn St, Pittsfield, MA 01201, USA", "FID": 22}}, {"type": "Feature", "id": 23, "geometry": {"type": "Point", "coordinates": [-73.2476164, 42.4364333]}, "properties": {"Line_No": 24, "System_ID": "PSF-SE-09B-GS", "Street_Name": "Pomeroy Ave *", "From_": "Howard St", "To_": "E Housatonic St", "City_Town": "Pittsfield", "Current_Material": "CI", "Replacement_Material___Action": "HDPE", "DIMP_Primary": "NF,O", "DIMP_Sub": "F,BJ", "DIMP_Risk": 64, "F2__Replacement__ft_": null, "F4__Replacement__ft_": 2285, "F6__Replacement__ft_": null, "F8__Replacement__ft_": null, "F12__Replacement__ft_": null, "Total_Main_Replacement___Abando": 2285, "GSEP_Eligible_Infrastructure__f": 2177, "Incidental_Pipe_Infrastructure_": 108, "Incidental_Pipe_Percentage__ft_": "5%", "Service_Replacements": 0, "Service_Trfr": 31, "Total_Project_Costs": "$877,767", "NPA_Potential_": "Pend\r", "lat": 42.4364333, "lon": -73.2476164, "Mapped_address": "Pomeroy Ave, Pittsfield, MA 01201, USA", "FID": 23}}, {"type": "Feature", "id": 24, "geometry": {"type": "Point", "coordinates": [-73.2504639, 42.4447448]}, "properties": {"Line_No": 25, "System_ID": "PSF-SE-09B-GS", "Street_Name": "E Housatonic St *", "From_": "Pomeroy Ave", "To_": "Deming St", "City_Town": "Pittsfield", "Current_Material": "CI", "Replacement_Material___Action": "HDPE", "DIMP_Primary": "NF,O", "DIMP_Sub": "F,BJ", "DIMP_Risk": 64, "F2__Replacement__ft_": null, "F4__Replacement__ft_": 680, "F6__Replacement__ft_": null, "F8__Replacement__ft_": null, "F12__Replacement__ft_": null, "Total_Main_Replacement___Abando": 680, "GSEP_Eligible_Infrastructure__f": 680, "Incidental_Pipe_Infrastructure_": 0, "Incidental_Pipe_Percentage__ft_": "0%", "Service_Replacements": 2, "Service_Trfr": 14, "Total_Project_Costs": "$326,619", "NPA_Potential_": "Pend\r", "lat": 42.4447448, "lon": -73.2504639, "Mapped_address": "E Housatonic St, Pittsfield, MA 01201, USA", "FID": 24}}, {"type": "Feature", "id": 25, "geometry": {"type": "Point", "coordinates": [-73.2515961, 42.4394374]}, "properties": {"Line_No": 26, "System_ID": "PSF-SE-09B-GS", "Street_Name": "Coltland Dr", "From_": "Pomeroy Ave", "To_": "Dead End", "City_Town": "Pittsfield", "Current_Material": "CI", "Replacement_Material___Action": "HDPE", "DIMP_Primary": "NF,O", "DIMP_Sub": "F,BJ", "DIMP_Risk": 64, "F2__Replacement__ft_": 324, "F4__Replacement__ft_": null, "F6__Replacement__ft_": null, "F8__Replacement__ft_": null, "F12__Replacement__ft_": null, "Total_Main_Replacement___Abando": 324, "GSEP_Eligible_Infrastructure__f": 324, "Incidental_Pipe_Infrastructure_": 0, "Incidental_Pipe_Percentage__ft_": "0%", "Service_Replacements": 0, "Service_Trfr": 6, "Total_Project_Costs": "$108,142", "NPA_Potential_": "Pend\r", "lat": 42.4394374, "lon": -73.2515961, "Mapped_address": "Coltland Dr, Pittsfield, MA 01201, USA", "FID": 25}}, {"type": "Feature", "id": 26, "geometry": {"type": "Point", "coordinates": [-73.2495524, 42.4416234]}, "properties": {"Line_No": 27, "System_ID": "PSF-SE-09B-GS", "Street_Name": "Howard St", "From_": "E Housatonic St", "To_": "Pomeroy Ave", "City_Town": "Pittsfield", "Current_Material": "CI", "Replacement_Material___Action": "HDPE", "DIMP_Primary": "NF,O", "DIMP_Sub": "F,BJ", "DIMP_Risk": 64, "F2__Replacement__ft_": 2030, "F4__Replacement__ft_": null, "F6__Replacement__ft_": null, "F8__Replacement__ft_": null, "F12__Replacement__ft_": null, "Total_Main_Replacement___Abando": 2030, "GSEP_Eligible_Infrastructure__f": 2030, "Incidental_Pipe_Infrastructure_": 0, "Incidental_Pipe_Percentage__ft_": "0%", "Service_Replacements": 0, "Service_Trfr": 42, "Total_Project_Costs": "$645,166", "NPA_Potential_": "Pend\r", "lat": 42.4416234, "lon": -73.2495524, "Mapped_address": "Howard St, Pittsfield, MA 01201, USA", "FID": 26}}, {"type": "Feature", "id": 27, "geometry": {"type": "Point", "coordinates": [-73.242791, 42.439759]}, "properties": {"Line_No": 28, "System_ID": "PSF-SE-09B-GS", "Street_Name": "Dawes Ave *", "From_": "Howard St", "To_": "Appleton Ave south", "City_Town": "Pittsfield", "Current_Material": "CI", "Replacement_Material___Action": "HDPE", "DIMP_Primary": "NF,O", "DIMP_Sub": "F,BJ", "DIMP_Risk": 64, "F2__Replacement__ft_": null, "F4__Replacement__ft_": 92, "F6__Replacement__ft_": null, "F8__Replacement__ft_": null, "F12__Replacement__ft_": null, "Total_Main_Replacement___Abando": 92, "GSEP_Eligible_Infrastructure__f": 92, "Incidental_Pipe_Infrastructure_": 0, "Incidental_Pipe_Percentage__ft_": "0%", "Service_Replacements": 0, "Service_Trfr": 24, "Total_Project_Costs": "$226,595", "NPA_Potential_": "Pend\r", "lat": 42.439759, "lon": -73.242791, "Mapped_address": "Dawes Ave, Pittsfield, MA 01201, USA", "FID": 27}}, {"type": "Feature", "id": 28, "geometry": {"type": "Point", "coordinates": [-73.2501654, 42.4439251]}, "properties": {"Line_No": 29, "System_ID": "PSF-SE-09B-GS", "Street_Name": "Whitehead Pl", "From_": "Pomeroy Ave", "To_": "Dead End", "City_Town": "Pittsfield", "Current_Material": "BS", "Replacement_Material___Action": "HDPE", "DIMP_Primary": "C", "DIMP_Sub": "BSNCP", "DIMP_Risk": 1, "F2__Replacement__ft_": 252, "F4__Replacement__ft_": null, "F6__Replacement__ft_": null, "F8__Replacement__ft_": null, "F12__Replacement__ft_": null, "Total_Main_Replacement___Abando": 252, "GSEP_Eligible_Infrastructure__f": 252, "Incidental_Pipe_Infrastructure_": 0, "Incidental_Pipe_Percentage__ft_": "0%", "Service_Replacements": 3, "Service_Trfr": 1, "Total_Project_Costs": "$85,689", "NPA_Potential_": "Pend\r", "lat": 42.4439251, "lon": -73.2501654, "Mapped_address": "Whitehead Pl, Pittsfield, MA 01201, USA", "FID": 28}}, {"type": "Feature", "id": 29, "geometry": {"type": "Point", "coordinates": [-73.2969565, 42.4396819]}, "properties": {"Line_No": 30, "System_ID": "PSF-SW-08-GS", "Street_Name": "W Housatonic St *", "From_": "Hungerford St", "To_": "Plymouth St", "City_Town": "Pittsfield", "Current_Material": "CI", "Replacement_Material___Action": "HDPE", "DIMP_Primary": "NF,O", "DIMP_Sub": "F,BJ", "DIMP_Risk": 64, "F2__Replacement__ft_": null, "F4__Replacement__ft_": null, "F6__Replacement__ft_": 3155, "F8__Replacement__ft_": null, "F12__Replacement__ft_": null, "Total_Main_Replacement___Abando": 3155, "GSEP_Eligible_Infrastructure__f": 3155, "Incidental_Pipe_Infrastructure_": 0, "Incidental_Pipe_Percentage__ft_": "0%", "Service_Replacements": 5, "Service_Trfr": 19, "Total_Project_Costs": "$1,694,695", "NPA_Potential_": "Pend\r", "lat": 42.4396819, "lon": -73.2969565, "Mapped_address": "W Housatonic St, Pittsfield, MA 01201, USA", "FID": 29}}, {"type": "Feature", "id": 30, "geometry": {"type": "Point", "coordinates": [-73.3022216, 42.4393191]}, "properties": {"Line_No": 31, "System_ID": "PSF-SW-08-GS", "Street_Name": "Hungerford St", "From_": "W Housatonic St", "To_": "#109 Hungerford St", "City_Town": "Pittsfield", "Current_Material": "CI", "Replacement_Material___Action": "HDPE", "DIMP_Primary": "NF,O", "DIMP_Sub": "F,BJ", "DIMP_Risk": 64, "F2__Replacement__ft_": 1827, "F4__Replacement__ft_": null, "F6__Replacement__ft_": null, "F8__Replacement__ft_": null, "F12__Replacement__ft_": null, "Total_Main_Replacement___Abando": 1827, "GSEP_Eligible_Infrastructure__f": 1623, "Incidental_Pipe_Infrastructure_": 204, "Incidental_Pipe_Percentage__ft_": "11%", "Service_Replacements": 3, "Service_Trfr": 12, "Total_Project_Costs": "$427,069", "NPA_Potential_": "Pend\r", "lat": 42.4393191, "lon": -73.3022216, "Mapped_address": "Hungerford St, Pittsfield, MA 01201, USA", "FID": 30}}, {"type": "Feature", "id": 31, "geometry": {"type": "Point", "coordinates": [-73.2915878, 42.440945]}, "properties": {"Line_No": 32, "System_ID": "PSF-SW-08-GS", "Street_Name": "Frederick St", "From_": "W Housatonic St", "To_": "Caroline St", "City_Town": "Pittsfield", "Current_Material": "BS", "Replacement_Material___Action": "HDPE", "DIMP_Primary": "C", "DIMP_Sub": "BSNCP", "DIMP_Risk": 1, "F2__Replacement__ft_": 230, "F4__Replacement__ft_": null, "F6__Replacement__ft_": null, "F8__Replacement__ft_": null, "F12__Replacement__ft_": null, "Total_Main_Replacement___Abando": 230, "GSEP_Eligible_Infrastructure__f": 230, "Incidental_Pipe_Infrastructure_": 0, "Incidental_Pipe_Percentage__ft_": "0%", "Service_Replacements": 1, "Service_Trfr": 3, "Total_Project_Costs": "$79,621", "NPA_Potential_": "Pend\r", "lat": 42.440945, "lon": -73.2915878, "Mapped_address": "Frederick St, Pittsfield, MA 01201, USA", "FID": 31}}, {"type": "Feature", "id": 32, "geometry": {"type": "Point", "coordinates": [-73.288716, 42.440688]}, "properties": {"Line_No": 33, "System_ID": "PSF-SW-08-GS", "Street_Name": "Foreman's Ln", "From_": "W Housatonic St", "To_": "Dead End", "City_Town": "Pittsfield", "Current_Material": "BS", "Replacement_Material___Action": "HDPE", "DIMP_Primary": "C", "DIMP_Sub": "BSNCP", "DIMP_Risk": 1, "F2__Replacement__ft_": 418, "F4__Replacement__ft_": null, "F6__Replacement__ft_": null, "F8__Replacement__ft_": null, "F12__Replacement__ft_": null, "Total_Main_Replacement___Abando": 418, "GSEP_Eligible_Infrastructure__f": 418, "Incidental_Pipe_Infrastructure_": 0, "Incidental_Pipe_Percentage__ft_": "0%", "Service_Replacements": 0, "Service_Trfr": 1, "Total_Project_Costs": "$89,237", "NPA_Potential_": "Pend\r", "lat": 42.440688, "lon": -73.288716, "Mapped_address": "Foremans Ln, Pittsfield, MA 01201, USA", "FID": 32}}, {"type": "Feature", "id": 33, "geometry": {"type": "Point", "coordinates": [-73.2906705, 42.441964]}, "properties": {"Line_No": 34, "System_ID": "PSF-SW-08-GS", "Street_Name": "Oswald Ave", "From_": "W Housatonic St", "To_": "Gale Ave", "City_Town": "Pittsfield", "Current_Material": "CI", "Replacement_Material___Action": "HDPE", "DIMP_Primary": "NF,O", "DIMP_Sub": "F,BJ", "DIMP_Risk": 64, "F2__Replacement__ft_": null, "F4__Replacement__ft_": 48, "F6__Replacement__ft_": null, "F8__Replacement__ft_": null, "F12__Replacement__ft_": null, "Total_Main_Replacement___Abando": 48, "GSEP_Eligible_Infrastructure__f": 48, "Incidental_Pipe_Infrastructure_": 0, "Incidental_Pipe_Percentage__ft_": "0%", "Service_Replacements": 0, "Service_Trfr": 0, "Total_Project_Costs": "$23,315", "NPA_Potential_": "Pend\r", "lat": 42.441964, "lon": -73.2906705, "Mapped_address": "Oswald Ave, Pittsfield, MA 01201, USA", "FID": 33}}, {"type": "Feature", "id": 34, "geometry": {"type": "Point", "coordinates": [-73.2077627, 42.721751]}, "properties": {"Line_No": 38, "System_ID": "WMS-06-GS", "Street_Name": "North St *", "From_": "Bulkley St", "To_": "#518 North St", "City_Town": "Williamstown", "Current_Material": "CI", "Replacement_Material___Action": "HDPE", "DIMP_Primary": "NF,O", "DIMP_Sub": "F,BJ", "DIMP_Risk": 64, "F2__Replacement__ft_": 3289, "F4__Replacement__ft_": null, "F6__Replacement__ft_": null, "F8__Replacement__ft_": null, "F12__Replacement__ft_": null, "Total_Main_Replacement___Abando": 3289, "GSEP_Eligible_Infrastructure__f": 3289, "Incidental_Pipe_Infrastructure_": 0, "Incidental_Pipe_Percentage__ft_": "0%", "Service_Replacements": 10, "Service_Trfr": 24, "Total_Project_Costs": "$929,821", "NPA_Potential_": "Pend\r", "lat": 42.721751, "lon": -73.2077627, "Mapped_address": "North St, Williamstown, MA 01267, USA", "FID": 34}}, {"type": "Feature", "id": 35, "geometry": {"type": "Point", "coordinates": [-73.215233, 42.721167]}, "properties": {"Line_No": 39, "System_ID": "WMS-06-GS", "Street_Name": "Bulkley St", "From_": "North St", "To_": "Bulkley St River Bridge", "City_Town": "Williamstown", "Current_Material": "CI", "Replacement_Material___Action": "HDPE", "DIMP_Primary": "NF,O", "DIMP_Sub": "F,BJ", "DIMP_Risk": 64, "F2__Replacement__ft_": 492, "F4__Replacement__ft_": null, "F6__Replacement__ft_": null, "F8__Replacement__ft_": null, "F12__Replacement__ft_": null, "Total_Main_Replacement___Abando": 492, "GSEP_Eligible_Infrastructure__f": 492, "Incidental_Pipe_Infrastructure_": 0, "Incidental_Pipe_Percentage__ft_": "0%", "Service_Replacements": 0, "Service_Trfr": 2, "Total_Project_Costs": "$108,632", "NPA_Potential_": "Pend\r", "lat": 42.721167, "lon": -73.215233, "Mapped_address": "Bulkley St, Williamstown, MA 01267, USA", "FID": 35}}, {"type": "Feature", "id": 36, "geometry": {"type": "Point", "coordinates": [-73.2077627, 42.721751]}, "properties": {"Line_No": 40, "System_ID": "WMS-07-GS", "Street_Name": "North St *", "From_": "W Main St", "To_": "Bulkley St", "City_Town": "Williamstown", "Current_Material": "CI", "Replacement_Material___Action": "HDPE", "DIMP_Primary": "NF,O", "DIMP_Sub": "F,BJ", "DIMP_Risk": 64, "F2__Replacement__ft_": null, "F4__Replacement__ft_": 1174, "F6__Replacement__ft_": null, "F8__Replacement__ft_": null, "F12__Replacement__ft_": null, "Total_Main_Replacement___Abando": 1174, "GSEP_Eligible_Infrastructure__f": 1174, "Incidental_Pipe_Infrastructure_": 0, "Incidental_Pipe_Percentage__ft_": "0%", "Service_Replacements": 1, "Service_Trfr": 12, "Total_Project_Costs": "$436,126", "NPA_Potential_": "Pend\r", "lat": 42.721751, "lon": -73.2077627, "Mapped_address": "North St, Williamstown, MA 01267, USA", "FID": 36}}, {"type": "Feature", "id": 37, "geometry": {"type": "Point", "coordinates": [-73.207722, 42.7180441]}, "properties": {"Line_No": 41, "System_ID": "WMS-07-GS", "Street_Name": "Jerome Dr", "From_": "North St", "To_": "Dead End", "City_Town": "Williamstown", "Current_Material": "NCPCS", "Replacement_Material___Action": "HDPE", "DIMP_Primary": "C", "DIMP_Sub": "CSNCP", "DIMP_Risk": 1, "F2__Replacement__ft_": 572, "F4__Replacement__ft_": null, "F6__Replacement__ft_": null, "F8__Replacement__ft_": null, "F12__Replacement__ft_": null, "Total_Main_Replacement___Abando": 572, "GSEP_Eligible_Infrastructure__f": 572, "Incidental_Pipe_Infrastructure_": 0, "Incidental_Pipe_Percentage__ft_": "0%", "Service_Replacements": 0, "Service_Trfr": 7, "Total_Project_Costs": "$156,813", "NPA_Potential_": "Pend", "lat": 42.7180441, "lon": -73.207722, "Mapped_address": "Jerome Dr, Williamstown, MA 01267, USA", "FID": 37}}]}