{"type": "FeatureCollection", "features": [{"type": "Feature", "id": 1, "geometry": {"type": "Point", "coordinates": [-73.21249706841, 42.7142583106627]}, "properties": {"Line_No": 34, "System_ID": "WMS-08-GS", "Street_Name": "W Main St *", "From_": "Hemlock Brook", "To_": "Hill Province Rd", "City_Town": "Williamstown", "Current_Material": "NCPCS", "Replacement_Material___Action": "HDPE", "DIMP_Primary": "C", "DIMP_Sub": "CSNCP", "DIMP_Risk": 1, "F2__Replacement__ft_": null, "F4__Replacement__ft_": 747, "F6__Replacement__ft_": null, "F8__Replacement__ft_": null, "F12__Replacement__ft_": null, "Total_Main_Replacement___Abando": 747, "GSEP_Eligible_Infrastructure__f": 677, "Incidental_Pipe_Infrastructure_": 70, "Incidental_Pipe_Percentage__ft_": "9%", "Service_Replacements": 1, "Service_Trfr": 3, "Total_Project_Costs": "$257,058", "NPA_Potential_": "Pend\r", "lat": 42.7142583106627, "lon": -73.21249706841, "Mapped_address": "W. Main St, Williamstown, MA, USA", "FID": 1}}, {"type": "Feature", "id": 2, "geometry": {"type": "Point", "coordinates": [-73.1149479, 42.6270646]}, "properties": {"Line_No": 1, "System_ID": "ADA-16-GS", "Street_Name": "Mill St *", "From_": "Hoosac St", "To_": "Murray St", "City_Town": "Adams", "Current_Material": "CI", "Replacement_Material___Action": "HDPE", "DIMP_Primary": "NF,O", "DIMP_Sub": "F,BJ", "DIMP_Risk": 64, "F2__Replacement__ft_": null, "F4__Replacement__ft_": null, "F6__Replacement__ft_": null, "F8__Replacement__ft_": 1668, "F12__Replacement__ft_": null, "Total_Main_Replacement___Abando": 1668, "GSEP_Eligible_Infrastructure__f": 1555, "Incidental_Pipe_Infrastructure_": 113, "Incidental_Pipe_Percentage__ft_": "7%", "Service_Replacements": 3, "Service_Trfr": 9, "Total_Project_Costs": "$924,468", "NPA_Potential_": "Pend\r", "lat": 42.6270646, "lon": -73.1149479, "Mapped_address": "Mill St, Adams, MA 01220, USA", "FID": 2}}, {"type": "Feature", "id": 3, "geometry": {"type": "Point", "coordinates": [-73.1157146, 42.6250122]}, "properties": {"Line_No": 2, "System_ID": "ADA-16-GS", "Street_Name": "Hoosac St *", "From_": "Depot St", "To_": "N Summer St", "City_Town": "Adams", "Current_Material": "CI", "Replacement_Material___Action": "HDPE", "DIMP_Primary": "NF,O", "DIMP_Sub": "F,BJ", "DIMP_Risk": 64, "F2__Replacement__ft_": null, "F4__Replacement__ft_": 1880, "F6__Replacement__ft_": null, "F8__Replacement__ft_": null, "F12__Replacement__ft_": null, "Total_Main_Replacement___Abando": 1880, "GSEP_Eligible_Infrastructure__f": 1880, "Incidental_Pipe_Infrastructure_": 0, "Incidental_Pipe_Percentage__ft_": "0%", "Service_Replacements": 6, "Service_Trfr": 15, "Total_Project_Costs": "$718,458", "NPA_Potential_": "Pend\r", "lat": 42.6250122, "lon": -73.1157146, "Mapped_address": "Hoosac St, Adams, MA 01220, USA", "FID": 3}}, {"type": "Feature", "id": 4, "geometry": {"type": "Point", "coordinates": [-73.114441, 42.625521]}, "properties": {"Line_No": 3, "System_ID": "ADA-16-GS", "Street_Name": "N. Hoosac St", "From_": "Hoosac St", "To_": "Dead End", "City_Town": "Adams", "Current_Material": "NCPCS", "Replacement_Material___Action": "HDPE", "DIMP_Primary": "C", "DIMP_Sub": "CSNCP", "DIMP_Risk": 1, "F2__Replacement__ft_": 351, "F4__Replacement__ft_": null, "F6__Replacement__ft_": null, "F8__Replacement__ft_": null, "F12__Replacement__ft_": null, "Total_Main_Replacement___Abando": 351, "GSEP_Eligible_Infrastructure__f": 351, "Incidental_Pipe_Infrastructure_": 0, "Incidental_Pipe_Percentage__ft_": "0%", "Service_Replacements": 0, "Service_Trfr": 2, "Total_Project_Costs": "$87,456", "NPA_Potential_": "Pend\r", "lat": 42.625521, "lon": -73.114441, "Mapped_address": "N Hoosac St, Adams, MA 01220, USA", "FID": 4}}, {"type": "Feature", "id": 5, "geometry": {"type": "Point", "coordinates": [-73.1166103, 42.6259066]}, "properties": {"Line_No": 4, "System_ID": "ADA-16-GS", "Street_Name": "Allen St", "From_": "Hoosac St", "To_": "Mill St", "City_Town": "Adams", "Current_Material": "NCPCS", "Replacement_Material___Action": "HDPE", "DIMP_Primary": "C", "DIMP_Sub": "CSNCP", "DIMP_Risk": 1, "F2__Replacement__ft_": 470, "F4__Replacement__ft_": null, "F6__Replacement__ft_": null, "F8__Replacement__ft_": null, "F12__Replacement__ft_": null, "Total_Main_Replacement___Abando": 470, "GSEP_Eligible_Infrastructure__f": 470, "Incidental_Pipe_Infrastructure_": 0, "Incidental_Pipe_Percentage__ft_": "0%", "Service_Replacements": 0, "Service_Trfr": 6, "Total_Project_Costs": "$136,688", "NPA_Potential_": "Pend\r", "lat": 42.6259066, "lon": -73.1166103, "Mapped_address": "Allen St, Adams, MA 01220, USA", "FID": 5}}, {"type": "Feature", "id": 6, "geometry": {"type": "Point", "coordinates": [-73.1187595, 42.6238995]}, "properties": {"Line_No": 5, "System_ID": "ADA-16-GS", "Street_Name": "Depot St *", "From_": "Hoosac St", "To_": "#3 Columbia St", "City_Town": "Adams", "Current_Material": "NCPCS", "Replacement_Material___Action": "HDPE", "DIMP_Primary": "C", "DIMP_Sub": "CSNCP", "DIMP_Risk": 1, "F2__Replacement__ft_": null, "F4__Replacement__ft_": 295, "F6__Replacement__ft_": null, "F8__Replacement__ft_": null, "F12__Replacement__ft_": null, "Total_Main_Replacement___Abando": 295, "GSEP_Eligible_Infrastructure__f": 295, "Incidental_Pipe_Infrastructure_": 0, "Incidental_Pipe_Percentage__ft_": "0%", "Service_Replacements": 0, "Service_Trfr": 3, "Total_Project_Costs": "$120,986", "NPA_Potential_": "Pend\r", "lat": 42.6238995, "lon": -73.1187595, "Mapped_address": "Depot St, Adams, MA 01220, USA", "FID": 6}}, {"type": "Feature", "id": 7, "geometry": {"type": "Point", "coordinates": [-72.5969491, 42.5970118]}, "properties": {"Line_No": 7, "System_ID": "GFD-07-GS", "Street_Name": "Federal St *", "From_": "Beacon St", "To_": "Main St", "City_Town": "Greenfield", "Current_Material": "CI", "Replacement_Material___Action": "HDPE", "DIMP_Primary": "NF,O", "DIMP_Sub": "F,BJ", "DIMP_Risk": 64, "F2__Replacement__ft_": null, "F4__Replacement__ft_": null, "F6__Replacement__ft_": null, "F8__Replacement__ft_": 3500, "F12__Replacement__ft_": null, "Total_Main_Replacement___Abando": 3500, "GSEP_Eligible_Infrastructure__f": 3185, "Incidental_Pipe_Infrastructure_": 315, "Incidental_Pipe_Percentage__ft_": "9%", "Service_Replacements": 8, "Service_Trfr": 30, "Total_Project_Costs": "$2,029,991", "NPA_Potential_": "Pend\r", "lat": 42.5970118, "lon": -72.5969491, "Mapped_address": "Federal St, Greenfield, MA 01301, USA", "FID": 7}}, {"type": "Feature", "id": 8, "geometry": {"type": "Point", "coordinates": [-72.603867, 42.584624]}, "properties": {"Line_No": 8, "System_ID": "GFD-08-GS", "Street_Name": "Mill St IP *", "From_": "Mead St", "To_": "Bank Row", "City_Town": "Greenfield", "Current_Material": "CI", "Replacement_Material___Action": "HDPE", "DIMP_Primary": "NF,O", "DIMP_Sub": "F,BJ", "DIMP_Risk": 64, "F2__Replacement__ft_": 540, "F4__Replacement__ft_": null, "F6__Replacement__ft_": null, "F8__Replacement__ft_": null, "F12__Replacement__ft_": null, "Total_Main_Replacement___Abando": 540, "GSEP_Eligible_Infrastructure__f": 540, "Incidental_Pipe_Infrastructure_": 0, "Incidental_Pipe_Percentage__ft_": "0%", "Service_Replacements": 1, "Service_Trfr": 15, "Total_Project_Costs": "$252,159", "NPA_Potential_": "Pend\r", "lat": 42.584624, "lon": -72.603867, "Mapped_address": "Mill St, Greenfield, MA 01301, USA", "FID": 8}}, {"type": "Feature", "id": 9, "geometry": {"type": "Point", "coordinates": [-72.6009662, 42.585699]}, "properties": {"Line_No": 9, "System_ID": "GFD-08-GS", "Street_Name": "Bank Row *", "From_": "Court Sq", "To_": "Mill St", "City_Town": "Greenfield", "Current_Material": "CI", "Replacement_Material___Action": "HDPE", "DIMP_Primary": "NF,O", "DIMP_Sub": "F,BJ", "DIMP_Risk": 64, "F2__Replacement__ft_": null, "F4__Replacement__ft_": null, "F6__Replacement__ft_": null, "F8__Replacement__ft_": 657, "F12__Replacement__ft_": null, "Total_Main_Replacement___Abando": 657, "GSEP_Eligible_Infrastructure__f": 657, "Incidental_Pipe_Infrastructure_": 0, "Incidental_Pipe_Percentage__ft_": "0%", "Service_Replacements": 1, "Service_Trfr": 5, "Total_Project_Costs": "$382,733", "NPA_Potential_": "Pend\r", "lat": 42.585699, "lon": -72.6009662, "Mapped_address": "Bank Row, Greenfield, MA 01301, USA", "FID": 9}}, {"type": "Feature", "id": 10, "geometry": {"type": "Point", "coordinates": [-72.604059, 42.585043]}, "properties": {"Line_No": 10, "System_ID": "GFD-08-GS", "Street_Name": "Power Sq *", "From_": "Mill St", "To_": "Mill St", "City_Town": "Greenfield", "Current_Material": "CI", "Replacement_Material___Action": "HDPE", "DIMP_Primary": "NF,O", "DIMP_Sub": "F,BJ", "DIMP_Risk": 64, "F2__Replacement__ft_": 695, "F4__Replacement__ft_": null, "F6__Replacement__ft_": null, "F8__Replacement__ft_": null, "F12__Replacement__ft_": null, "Total_Main_Replacement___Abando": 695, "GSEP_Eligible_Infrastructure__f": 691, "Incidental_Pipe_Infrastructure_": 4, "Incidental_Pipe_Percentage__ft_": "1%", "Service_Replacements": 4, "Service_Trfr": 7, "Total_Project_Costs": "$246,951", "NPA_Potential_": "Pend\r", "lat": 42.585043, "lon": -72.604059, "Mapped_address": "Power Square, Greenfield, MA 01301, USA", "FID": 10}}, {"type": "Feature", "id": 11, "geometry": {"type": "Point", "coordinates": [-72.604817, 42.584836]}, "properties": {"Line_No": 11, "System_ID": "GFD-08-GS", "Street_Name": "Power Ct *", "From_": "Power Sq", "To_": "Dead End", "City_Town": "Greenfield", "Current_Material": "BS", "Replacement_Material___Action": "HDPE", "DIMP_Primary": "C", "DIMP_Sub": "BSNCP", "DIMP_Risk": 1, "F2__Replacement__ft_": 350, "F4__Replacement__ft_": null, "F6__Replacement__ft_": null, "F8__Replacement__ft_": null, "F12__Replacement__ft_": null, "Total_Main_Replacement___Abando": 350, "GSEP_Eligible_Infrastructure__f": 350, "Incidental_Pipe_Infrastructure_": 0, "Incidental_Pipe_Percentage__ft_": "0%", "Service_Replacements": 5, "Service_Trfr": 1, "Total_Project_Costs": "$139,294", "NPA_Potential_": "Pend\r", "lat": 42.584836, "lon": -72.604817, "Mapped_address": "Power Ct, Greenfield, MA 01301, USA", "FID": 11}}, {"type": "Feature", "id": 12, "geometry": {"type": "Point", "coordinates": [-72.602892, 42.584543]}, "properties": {"Line_No": 12, "System_ID": "GFD-08-GS", "Street_Name": "Carpenters Ln *", "From_": "Mill St", "To_": "Mill St", "City_Town": "Greenfield", "Current_Material": "BS", "Replacement_Material___Action": "HDPE", "DIMP_Primary": "C", "DIMP_Sub": "BSNCP", "DIMP_Risk": 1, "F2__Replacement__ft_": 567, "F4__Replacement__ft_": null, "F6__Replacement__ft_": null, "F8__Replacement__ft_": null, "F12__Replacement__ft_": null, "Total_Main_Replacement___Abando": 567, "GSEP_Eligible_Infrastructure__f": 533, "Incidental_Pipe_Infrastructure_": 34, "Incidental_Pipe_Percentage__ft_": "6%", "Service_Replacements": 5, "Service_Trfr": 3, "Total_Project_Costs": "$198,661", "NPA_Potential_": "Pend\r", "lat": 42.584543, "lon": -72.602892, "Mapped_address": "Carpenters Ln, Greenfield, MA 01301, USA", "FID": 12}}, {"type": "Feature", "id": 13, "geometry": {"type": "Point", "coordinates": [-73.260899, 42.475418]}, "properties": {"Line_No": 14, "System_ID": "PSF-NW-05-GS", "Street_Name": "Lucille St", "From_": "Vivian Ave", "To_": "Paul Ave", "City_Town": "Pittsfield", "Current_Material": "BS", "Replacement_Material___Action": "HDPE", "DIMP_Primary": "C", "DIMP_Sub": "BSNCP", "DIMP_Risk": 1, "F2__Replacement__ft_": 874, "F4__Replacement__ft_": null, "F6__Replacement__ft_": null, "F8__Replacement__ft_": null, "F12__Replacement__ft_": null, "Total_Main_Replacement___Abando": 874, "GSEP_Eligible_Infrastructure__f": 790, "Incidental_Pipe_Infrastructure_": 84, "Incidental_Pipe_Percentage__ft_": "10%", "Service_Replacements": 4, "Service_Trfr": 4, "Total_Project_Costs": "$225,880", "NPA_Potential_": "Pend\r", "lat": 42.475418, "lon": -73.260899, "Mapped_address": "Lucille St, Pittsfield, MA 01201, USA", "FID": 13}}, {"type": "Feature", "id": 14, "geometry": {"type": "Point", "coordinates": [-73.2609586, 42.4761646]}, "properties": {"Line_No": 15, "System_ID": "PSF-NW-05-GS", "Street_Name": "Louise St", "From_": "Vivian Ave", "To_": "Paul Ave", "City_Town": "Pittsfield", "Current_Material": "CI", "Replacement_Material___Action": "HDPE", "DIMP_Primary": "NF,O", "DIMP_Sub": "F,BJ", "DIMP_Risk": 64, "F2__Replacement__ft_": 274, "F4__Replacement__ft_": null, "F6__Replacement__ft_": null, "F8__Replacement__ft_": null, "F12__Replacement__ft_": null, "Total_Main_Replacement___Abando": 274, "GSEP_Eligible_Infrastructure__f": 274, "Incidental_Pipe_Infrastructure_": 0, "Incidental_Pipe_Percentage__ft_": "0%", "Service_Replacements": 2, "Service_Trfr": 12, "Total_Project_Costs": "$162,378", "NPA_Potential_": "Pend\r", "lat": 42.4761646, "lon": -73.2609586, "Mapped_address": "Louise St, Pittsfield, MA 01201, USA", "FID": 14}}, {"type": "Feature", "id": 15, "geometry": {"type": "Point", "coordinates": [-73.259635, 42.474869]}, "properties": {"Line_No": 16, "System_ID": "PSF-NW-05-GS", "Street_Name": "Paul Ave", "From_": "Pecks Rd", "To_": "McAllister St", "City_Town": "Pittsfield", "Current_Material": "BS", "Replacement_Material___Action": "HDPE", "DIMP_Primary": "C", "DIMP_Sub": "BSNCP", "DIMP_Risk": 1, "F2__Replacement__ft_": 1107, "F4__Replacement__ft_": null, "F6__Replacement__ft_": null, "F8__Replacement__ft_": null, "F12__Replacement__ft_": null, "Total_Main_Replacement___Abando": 1107, "GSEP_Eligible_Infrastructure__f": 1069, "Incidental_Pipe_Infrastructure_": 38, "Incidental_Pipe_Percentage__ft_": "3%", "Service_Replacements": 4, "Service_Trfr": 2, "Total_Project_Costs": "$251,953", "NPA_Potential_": "Pend\r", "lat": 42.474869, "lon": -73.259635, "Mapped_address": "Paul Ave, Pittsfield, MA 01201, USA", "FID": 15}}, {"type": "Feature", "id": 16, "geometry": {"type": "Point", "coordinates": [-73.2231026, 42.4533651]}, "properties": {"Line_No": 17, "System_ID": "PSF-NE-05-GS", "Street_Name": "East St *", "From_": "Fourth St", "To_": "First St", "City_Town": "Pittsfield", "Current_Material": "NCPCS", "Replacement_Material___Action": "HDPE", "DIMP_Primary": "C", "DIMP_Sub": "CSNCP", "DIMP_Risk": 1, "F2__Replacement__ft_": null, "F4__Replacement__ft_": null, "F6__Replacement__ft_": null, "F8__Replacement__ft_": null, "F12__Replacement__ft_": 754, "Total_Main_Replacement___Abando": 754, "GSEP_Eligible_Infrastructure__f": 754, "Incidental_Pipe_Infrastructure_": 0, "Incidental_Pipe_Percentage__ft_": "0%", "Service_Replacements": 2, "Service_Trfr": 8, "Total_Project_Costs": "$518,323", "NPA_Potential_": "Pend\r", "lat": 42.4533651, "lon": -73.2231026, "Mapped_address": "East St, Pittsfield, MA 01201, USA", "FID": 16}}, {"type": "Feature", "id": 17, "geometry": {"type": "Point", "coordinates": [-73.2469287, 42.4525612]}, "properties": {"Line_No": 18, "System_ID": "PSF-NE-05-GS", "Street_Name": "2nd St *", "From_": "East St", "To_": "Fenn St", "City_Town": "Pittsfield", "Current_Material": "NCPCS", "Replacement_Material___Action": "HDPE", "DIMP_Primary": "C", "DIMP_Sub": "CSNCP", "DIMP_Risk": 1, "F2__Replacement__ft_": null, "F4__Replacement__ft_": null, "F6__Replacement__ft_": null, "F8__Replacement__ft_": 458, "F12__Replacement__ft_": null, "Total_Main_Replacement___Abando": 458, "GSEP_Eligible_Infrastructure__f": 458, "Incidental_Pipe_Infrastructure_": 0, "Incidental_Pipe_Percentage__ft_": "0%", "Service_Replacements": 2, "Service_Trfr": 2, "Total_Project_Costs": "$271,452", "NPA_Potential_": "Pend\r", "lat": 42.4525612, "lon": -73.2469287, "Mapped_address": "Second St, Pittsfield, MA 01201, USA", "FID": 17}}, {"type": "Feature", "id": 18, "geometry": {"type": "Point", "coordinates": [-73.2497935, 42.4487381]}, "properties": {"Line_No": 19, "System_ID": "PSF-NE-05-GS", "Street_Name": "Willis St *", "From_": "East St", "To_": "Fenn St", "City_Town": "Pittsfield", "Current_Material": "CI", "Replacement_Material___Action": "HDPE", "DIMP_Primary": "NF,O", "DIMP_Sub": "F,BJ", "DIMP_Risk": 64, "F2__Replacement__ft_": null, "F4__Replacement__ft_": null, "F6__Replacement__ft_": null, "F8__Replacement__ft_": 671, "F12__Replacement__ft_": null, "Total_Main_Replacement___Abando": 671, "GSEP_Eligible_Infrastructure__f": 577, "Incidental_Pipe_Infrastructure_": 94, "Incidental_Pipe_Percentage__ft_": "14%", "Service_Replacements": 1, "Service_Trfr": 3, "Total_Project_Costs": "$373,405", "NPA_Potential_": "Pend\r", "lat": 42.4487381, "lon": -73.2497935, "Mapped_address": "Willis St, Pittsfield, MA 01201, USA", "FID": 18}}, {"type": "Feature", "id": 19, "geometry": {"type": "Point", "coordinates": [-73.2486771, 42.4502682]}, "properties": {"Line_No": 20, "System_ID": "PSF-NE-05-GS", "Street_Name": "Crosby Pl", "From_": "Fenn St", "To_": "Rostone Pl", "City_Town": "Pittsfield", "Current_Material": "BS", "Replacement_Material___Action": "HDPE", "DIMP_Primary": "C", "DIMP_Sub": "BSNCP", "DIMP_Risk": 1, "F2__Replacement__ft_": null, "F4__Replacement__ft_": 312, "F6__Replacement__ft_": null, "F8__Replacement__ft_": null, "F12__Replacement__ft_": null, "Total_Main_Replacement___Abando": 312, "GSEP_Eligible_Infrastructure__f": 312, "Incidental_Pipe_Infrastructure_": 0, "Incidental_Pipe_Percentage__ft_": "0%", "Service_Replacements": 4, "Service_Trfr": 0, "Total_Project_Costs": "$121,802", "NPA_Potential_": "Pend\r", "lat": 42.4502682, "lon": -73.2486771, "Mapped_address": "Crosby Pl, Pittsfield, MA 01201, USA", "FID": 19}}, {"type": "Feature", "id": 20, "geometry": {"type": "Point", "coordinates": [-73.2528835, 42.4446804]}, "properties": {"Line_No": 21, "System_ID": "PSF-SE-11-GS", "Street_Name": "Wendell Ave IP *", "From_": "Colt Rd", "To_": "Taconic St", "City_Town": "Pittsfield", "Current_Material": "CI", "Replacement_Material___Action": "HDPE", "DIMP_Primary": "NF,O", "DIMP_Sub": "F,BJ", "DIMP_Risk": 64, "F2__Replacement__ft_": 582, "F4__Replacement__ft_": null, "F6__Replacement__ft_": null, "F8__Replacement__ft_": null, "F12__Replacement__ft_": null, "Total_Main_Replacement___Abando": 582, "GSEP_Eligible_Infrastructure__f": 582, "Incidental_Pipe_Infrastructure_": 0, "Incidental_Pipe_Percentage__ft_": "0%", "Service_Replacements": 5, "Service_Trfr": 4, "Total_Project_Costs": "$209,711", "NPA_Potential_": "Pend\r", "lat": 42.4446804, "lon": -73.2528835, "Mapped_address": "Wendell Ave, Pittsfield, MA 01201, USA", "FID": 20}}, {"type": "Feature", "id": 21, "geometry": {"type": "Point", "coordinates": [-73.251909, 42.443798]}, "properties": {"Line_No": 22, "System_ID": "PSF-SE-11-GS", "Street_Name": "Bartlett Ave IP *", "From_": "Colt Rd", "To_": "Taconic St", "City_Town": "Pittsfield", "Current_Material": "CI", "Replacement_Material___Action": "HDPE", "DIMP_Primary": "NF,O", "DIMP_Sub": "F,BJ", "DIMP_Risk": 64, "F2__Replacement__ft_": 1091, "F4__Replacement__ft_": null, "F6__Replacement__ft_": null, "F8__Replacement__ft_": null, "F12__Replacement__ft_": null, "Total_Main_Replacement___Abando": 1091, "GSEP_Eligible_Infrastructure__f": 1091, "Incidental_Pipe_Infrastructure_": 0, "Incidental_Pipe_Percentage__ft_": "0%", "Service_Replacements": 10, "Service_Trfr": 13, "Total_Project_Costs": "$431,004", "NPA_Potential_": "Pend\r", "lat": 42.443798, "lon": -73.251909, "Mapped_address": "Bartlett Ave, Pittsfield, MA 01201, USA", "FID": 21}}, {"type": "Feature", "id": 22, "geometry": {"type": "Point", "coordinates": [-73.2536271, 42.440189]}, "properties": {"Line_No": 23, "System_ID": "PSF-SE-11-GS", "Street_Name": "Colt Rd *", "From_": "Vertrans Way", "To_": "Pomeroy Ave", "City_Town": "Pittsfield", "Current_Material": "CI", "Replacement_Material___Action": "HDPE", "DIMP_Primary": "NF,O", "DIMP_Sub": "F,BJ", "DIMP_Risk": 64, "F2__Replacement__ft_": 511, "F4__Replacement__ft_": null, "F6__Replacement__ft_": null, "F8__Replacement__ft_": null, "F12__Replacement__ft_": null, "Total_Main_Replacement___Abando": 511, "GSEP_Eligible_Infrastructure__f": 511, "Incidental_Pipe_Infrastructure_": 0, "Incidental_Pipe_Percentage__ft_": "0%", "Service_Replacements": 4, "Service_Trfr": 3, "Total_Project_Costs": "$178,039", "NPA_Potential_": "Pend\r", "lat": 42.440189, "lon": -73.2536271, "Mapped_address": "Colt Rd, Pittsfield, MA 01201, USA", "FID": 22}}, {"type": "Feature", "id": 23, "geometry": {"type": "Point", "coordinates": [-73.2558819, 42.441251]}, "properties": {"Line_No": 24, "System_ID": "PSF-SE-11-GS", "Street_Name": "Veterans Way *", "From_": "Colt Rd", "To_": "South St", "City_Town": "Pittsfield", "Current_Material": "BS", "Replacement_Material___Action": "HDPE", "DIMP_Primary": "C", "DIMP_Sub": "BSNCP", "DIMP_Risk": 1, "F2__Replacement__ft_": 540, "F4__Replacement__ft_": null, "F6__Replacement__ft_": null, "F8__Replacement__ft_": null, "F12__Replacement__ft_": null, "Total_Main_Replacement___Abando": 540, "GSEP_Eligible_Infrastructure__f": 540, "Incidental_Pipe_Infrastructure_": 0, "Incidental_Pipe_Percentage__ft_": "0%", "Service_Replacements": 0, "Service_Trfr": 0, "Total_Project_Costs": "$121,790", "NPA_Potential_": "Pend\r", "lat": 42.441251, "lon": -73.2558819, "Mapped_address": "Veterans Way, Pittsfield, MA 01201, USA", "FID": 23}}, {"type": "Feature", "id": 24, "geometry": {"type": "Point", "coordinates": [-73.2593291, 42.4274449]}, "properties": {"Line_No": 25, "System_ID": "PSF-SE-11-GS", "Street_Name": "South St *", "From_": "Boylston St", "To_": "Taconic St", "City_Town": "Pittsfield", "Current_Material": "CI", "Replacement_Material___Action": "HDPE", "DIMP_Primary": "NF,O", "DIMP_Sub": "F,BJ", "DIMP_Risk": 64, "F2__Replacement__ft_": null, "F4__Replacement__ft_": null, "F6__Replacement__ft_": "2,973", "F8__Replacement__ft_": null, "F12__Replacement__ft_": null, "Total_Main_Replacement___Abando": 2973, "GSEP_Eligible_Infrastructure__f": 2842, "Incidental_Pipe_Infrastructure_": 131, "Incidental_Pipe_Percentage__ft_": "4%", "Service_Replacements": 3, "Service_Trfr": 14, "Total_Project_Costs": "$1,597,997", "NPA_Potential_": "Pend\r", "lat": 42.4274449, "lon": -73.2593291, "Mapped_address": "South St, Pittsfield, MA 01201, USA", "FID": 24}}, {"type": "Feature", "id": 25, "geometry": {"type": "Point", "coordinates": [-73.253528, 42.442286]}, "properties": {"Line_No": 26, "System_ID": "PSF-SE-11-GS", "Street_Name": "Broad St *", "From_": "South St", "To_": "Pomeroy Ave", "City_Town": "Pittsfield", "Current_Material": "CI", "Replacement_Material___Action": "ABNRM", "DIMP_Primary": "NF,O", "DIMP_Sub": "F,BJ", "DIMP_Risk": 64, "F2__Replacement__ft_": null, "F4__Replacement__ft_": null, "F6__Replacement__ft_": null, "F8__Replacement__ft_": null, "F12__Replacement__ft_": null, "Total_Main_Replacement___Abando": 1154, "GSEP_Eligible_Infrastructure__f": 1154, "Incidental_Pipe_Infrastructure_": 0, "Incidental_Pipe_Percentage__ft_": "0%", "Service_Replacements": 3, "Service_Trfr": 6, "Total_Project_Costs": "$90,920", "NPA_Potential_": "Pend\r", "lat": 42.442286, "lon": -73.253528, "Mapped_address": "Broad St, Pittsfield, MA 01201, USA", "FID": 25}}, {"type": "Feature", "id": 26, "geometry": {"type": "Point", "coordinates": [-73.2969565, 42.4396819]}, "properties": {"Line_No": 27, "System_ID": "PSF-SW-09-GS", "Street_Name": "W Housatonic St *", "From_": "Plymouth St", "To_": "Hawthorne Ave", "City_Town": "Pittsfield", "Current_Material": "CI", "Replacement_Material___Action": "HDPE", "DIMP_Primary": "NF,O", "DIMP_Sub": "F,BJ", "DIMP_Risk": 64, "F2__Replacement__ft_": null, "F4__Replacement__ft_": null, "F6__Replacement__ft_": "5,039", "F8__Replacement__ft_": null, "F12__Replacement__ft_": null, "Total_Main_Replacement___Abando": 5039, "GSEP_Eligible_Infrastructure__f": 5039, "Incidental_Pipe_Infrastructure_": 0, "Incidental_Pipe_Percentage__ft_": "0%", "Service_Replacements": 2, "Service_Trfr": 50, "Total_Project_Costs": "$2,881,201", "NPA_Potential_": "Pend\r", "lat": 42.4396819, "lon": -73.2969565, "Mapped_address": "W Housatonic St, Pittsfield, MA 01201, USA", "FID": 26}}, {"type": "Feature", "id": 27, "geometry": {"type": "Point", "coordinates": [-73.2701544, 42.4442029]}, "properties": {"Line_No": 28, "System_ID": "PSF-SW-09-GS", "Street_Name": "Britton St", "From_": "W Housatonic St", "To_": "Dead End", "City_Town": "Pittsfield", "Current_Material": "CI", "Replacement_Material___Action": "HDPE", "DIMP_Primary": "NF,O", "DIMP_Sub": "F,BJ", "DIMP_Risk": 64, "F2__Replacement__ft_": 500, "F4__Replacement__ft_": null, "F6__Replacement__ft_": null, "F8__Replacement__ft_": null, "F12__Replacement__ft_": null, "Total_Main_Replacement___Abando": 500, "GSEP_Eligible_Infrastructure__f": 500, "Incidental_Pipe_Infrastructure_": 0, "Incidental_Pipe_Percentage__ft_": "0%", "Service_Replacements": 2, "Service_Trfr": 3, "Total_Project_Costs": "$137,172", "NPA_Potential_": "Pend\r", "lat": 42.4442029, "lon": -73.2701544, "Mapped_address": "Britton St, Pittsfield, MA 01201, USA", "FID": 27}}, {"type": "Feature", "id": 28, "geometry": {"type": "Point", "coordinates": [-73.2690885, 42.4419728]}, "properties": {"Line_No": 29, "System_ID": "PSF-SW-09-GS", "Street_Name": "Westwood Rd", "From_": "W Housatonic St", "To_": "#36 Westwood Rd", "City_Town": "Pittsfield", "Current_Material": "CI", "Replacement_Material___Action": "HDPE", "DIMP_Primary": "NF,O", "DIMP_Sub": "F,BJ", "DIMP_Risk": 64, "F2__Replacement__ft_": 420, "F4__Replacement__ft_": null, "F6__Replacement__ft_": null, "F8__Replacement__ft_": null, "F12__Replacement__ft_": null, "Total_Main_Replacement___Abando": 420, "GSEP_Eligible_Infrastructure__f": 372, "Incidental_Pipe_Infrastructure_": 48, "Incidental_Pipe_Percentage__ft_": "11%", "Service_Replacements": 1, "Service_Trfr": 7, "Total_Project_Costs": "$143,547", "NPA_Potential_": "Pend\r", "lat": 42.4419728, "lon": -73.2690885, "Mapped_address": "Westwood Rd, Pittsfield, MA 01201, USA", "FID": 28}}, {"type": "Feature", "id": 29, "geometry": {"type": "Point", "coordinates": [-73.2911927, 42.4315158]}, "properties": {"Line_No": 30, "System_ID": "PSF-SW-09-GS", "Street_Name": "Barker Rd", "From_": "W Housatonic St", "To_": "#82 Barker Rd", "City_Town": "Pittsfield", "Current_Material": "NCPCS", "Replacement_Material___Action": "HDPE", "DIMP_Primary": "C", "DIMP_Sub": "CSNCP", "DIMP_Risk": 1, "F2__Replacement__ft_": 645, "F4__Replacement__ft_": null, "F6__Replacement__ft_": null, "F8__Replacement__ft_": null, "F12__Replacement__ft_": null, "Total_Main_Replacement___Abando": 645, "GSEP_Eligible_Infrastructure__f": 645, "Incidental_Pipe_Infrastructure_": 0, "Incidental_Pipe_Percentage__ft_": "0%", "Service_Replacements": 0, "Service_Trfr": 5, "Total_Project_Costs": "$159,863", "NPA_Potential_": "Pend\r", "lat": 42.4315158, "lon": -73.2911927, "Mapped_address": "Barker Rd, Pittsfield, MA 01201, USA", "FID": 29}}, {"type": "Feature", "id": 30, "geometry": {"type": "Point", "coordinates": [-73.216972, 42.713516]}, "properties": {"Line_No": 35, "System_ID": "WMS-08-GS", "Street_Name": "Buxton Hill Rd", "From_": "W Main St", "To_": "Dead End", "City_Town": "Williamstown", "Current_Material": "NCPCS", "Replacement_Material___Action": "HDPE", "DIMP_Primary": "C", "DIMP_Sub": "CSNCP", "DIMP_Risk": 1, "F2__Replacement__ft_": 1177, "F4__Replacement__ft_": null, "F6__Replacement__ft_": null, "F8__Replacement__ft_": null, "F12__Replacement__ft_": null, "Total_Main_Replacement___Abando": 1177, "GSEP_Eligible_Infrastructure__f": 1177, "Incidental_Pipe_Infrastructure_": 0, "Incidental_Pipe_Percentage__ft_": "0%", "Service_Replacements": 0, "Service_Trfr": 13, "Total_Project_Costs": "$309,277", "NPA_Potential_": "Pend\r", "lat": 42.713516, "lon": -73.216972, "Mapped_address": "Buxton Hill Rd, Williamstown, MA 01267, USA", "FID": 30}}, {"type": "Feature", "id": 31, "geometry": {"type": "Point", "coordinates": [-73.2185718, 42.7146897]}, "properties": {"Line_No": 36, "System_ID": "WMS-08-GS", "Street_Name": "Hawthorne Rd", "From_": "Buxton Hill Rd", "To_": "Thoenilebank Rd", "City_Town": "Williamstown", "Current_Material": "NCPCS", "Replacement_Material___Action": "HDPE", "DIMP_Primary": "C", "DIMP_Sub": "CSNCP", "DIMP_Risk": 1, "F2__Replacement__ft_": 1135, "F4__Replacement__ft_": null, "F6__Replacement__ft_": null, "F8__Replacement__ft_": null, "F12__Replacement__ft_": null, "Total_Main_Replacement___Abando": 1135, "GSEP_Eligible_Infrastructure__f": 1135, "Incidental_Pipe_Infrastructure_": 0, "Incidental_Pipe_Percentage__ft_": "0%", "Service_Replacements": 0, "Service_Trfr": 6, "Total_Project_Costs": "$251,932", "NPA_Potential_": "Pend\r", "lat": 42.7146897, "lon": -73.2185718, "Mapped_address": "Hawthorne Rd, Williamstown, MA 01267, USA", "FID": 31}}, {"type": "Feature", "id": 32, "geometry": {"type": "Point", "coordinates": [-73.2184078, 42.714002]}, "properties": {"Line_No": 37, "System_ID": "WMS-08-GS", "Street_Name": "Hawthorne Ct", "From_": "Hawthorne Rd", "To_": "Dead End", "City_Town": "Williamstown", "Current_Material": "NCPCS", "Replacement_Material___Action": "HDPE", "DIMP_Primary": "C", "DIMP_Sub": "CSNCP", "DIMP_Risk": 1, "F2__Replacement__ft_": 320, "F4__Replacement__ft_": null, "F6__Replacement__ft_": null, "F8__Replacement__ft_": null, "F12__Replacement__ft_": null, "Total_Main_Replacement___Abando": 320, "GSEP_Eligible_Infrastructure__f": 320, "Incidental_Pipe_Infrastructure_": 0, "Incidental_Pipe_Percentage__ft_": "0%", "Service_Replacements": 0, "Service_Trfr": 2, "Total_Project_Costs": "$82,084", "NPA_Potential_": "Pend\r", "lat": 42.714002, "lon": -73.2184078, "Mapped_address": "Hawthorne Ct, Williamstown, MA 01267, USA", "FID": 32}}, {"type": "Feature", "id": 33, "geometry": {"type": "Point", "coordinates": [-73.217108, 42.716229]}, "properties": {"Line_No": 38, "System_ID": "WMS-08-GS", "Street_Name": "Hill Province Rd", "From_": "W Main St", "To_": "Dead End", "City_Town": "Williamstown", "Current_Material": "NCPCS", "Replacement_Material___Action": "HDPE", "DIMP_Primary": "C", "DIMP_Sub": "CSNCP", "DIMP_Risk": 1, "F2__Replacement__ft_": 1133, "F4__Replacement__ft_": null, "F6__Replacement__ft_": null, "F8__Replacement__ft_": null, "F12__Replacement__ft_": null, "Total_Main_Replacement___Abando": 1133, "GSEP_Eligible_Infrastructure__f": 1133, "Incidental_Pipe_Infrastructure_": 0, "Incidental_Pipe_Percentage__ft_": "0%", "Service_Replacements": 0, "Service_Trfr": 5, "Total_Project_Costs": "$244,432", "NPA_Potential_": "Pend\r", "lat": 42.716229, "lon": -73.217108, "Mapped_address": "Hill Province Rd, Williamstown, MA 01267, USA", "FID": 33}}, {"type": "Feature", "id": 34, "geometry": {"type": "Point", "coordinates": [-73.2167497, 42.7166307]}, "properties": {"Line_No": 39, "System_ID": "WMS-08-GS", "Street_Name": "Laurie Dr", "From_": "Hill Province Rd", "To_": "Dead End", "City_Town": "Williamstown", "Current_Material": "NCPCS", "Replacement_Material___Action": "HDPE", "DIMP_Primary": "C", "DIMP_Sub": "CSNCP", "DIMP_Risk": 1, "F2__Replacement__ft_": 451, "F4__Replacement__ft_": null, "F6__Replacement__ft_": null, "F8__Replacement__ft_": null, "F12__Replacement__ft_": null, "Total_Main_Replacement___Abando": 451, "GSEP_Eligible_Infrastructure__f": 451, "Incidental_Pipe_Infrastructure_": 0, "Incidental_Pipe_Percentage__ft_": "0%", "Service_Replacements": 0, "Service_Trfr": 2, "Total_Project_Costs": "$104,786", "NPA_Potential_": "Pend", "lat": 42.7166307, "lon": -73.2167497, "Mapped_address": "Laurie Dr, Williamstown, MA 01267, USA", "FID": 34}}]}