{"type": "FeatureCollection", "features": [{"type": "Feature", "id": 1, "geometry": {"type": "Point", "coordinates": [-70.617008523622, 41.7231831829778]}, "properties": {"Line": 4, "Company": "Colonial Gas", "Division": "Cape", "Town": "Monument Beach", "Town_Code": "MOB", "State": "MA", "Description__street_segment_": "2-6 EVERGREEN HILL RD, MOB, & 1-67 MARYLAND AV", "Diameter": 1.25, "Material": "Steel-WI", "Operating_Pressure": "60", "NPA_Opportunity": "No - Impact to System Integration", "F_LPP_Footage_": 1295, "F_LPP_Mileage__": 0.25, "lat": 41.7231831829778, "lon": -70.617008523622, "Mapped_address": "34 Maryland Ave, Bourne, MA 02532, USA", "FID": 1}}, {"type": "Feature", "id": 2, "geometry": {"type": "Point", "coordinates": [-70.6136972, 41.7224772]}, "properties": {"Line": 4, "Company": "Colonial Gas", "Division": "Cape", "Town": "Monument Beach", "Town_Code": "MOB", "State": "MA", "Description__street_segment_": "2-6 EVERGREEN HILL RD, MOB, & 1-67 MARYLAND AV", "Diameter": 1.25, "Material": "Steel-WI", "Operating_Pressure": "60", "NPA_Opportunity": "No - Impact to System Integration", "F_LPP_Footage_": 1295, "F_LPP_Mileage__": 0.25, "lat": 41.7224772, "lon": -70.6136972, "Mapped_address": "4 Evergreen Hill Rd, Bourne, MA 02532, USA", "FID": 2}}, {"type": "Feature", "id": 3, "geometry": {"type": "Point", "coordinates": [-70.6141517, 41.7193751]}, "properties": {"Line": 5, "Company": "Colonial Gas", "Division": "Cape", "Town": "Monument Beach", "Town_Code": "MOB", "State": "MA", "Description__street_segment_": "436-440 SHORE RD, MOB", "Diameter": 2, "Material": "Steel-WI", "Operating_Pressure": "60", "NPA_Opportunity": "No - Impact to System Integration", "F_LPP_Footage_": 50, "F_LPP_Mileage__": 0.01, "lat": 41.7193751, "lon": -70.6141517, "Mapped_address": "438 Shore Rd, Pocasset, MA 02559, USA", "FID": 3}}, {"type": "Feature", "id": 4, "geometry": {"type": "Point", "coordinates": [-70.6130405430303, 41.679259635123]}, "properties": {"Line": 9, "Company": "Colonial Gas", "Division": "Cape", "Town": "Pocasset", "Town_Code": "POC", "State": "MA", "Description__street_segment_": "720-742 SHORE RD, POC, RR-XING", "Diameter": 4, "Material": "Steel-WI", "Operating_Pressure": "60", "NPA_Opportunity": "No - Impact to System Integration", "F_LPP_Footage_": 275, "F_LPP_Mileage__": 0.05, "lat": 41.679259635123, "lon": -70.6130405430303, "Mapped_address": "Railroad, Pocasset, MA, USA", "FID": 4}}, {"type": "Feature", "id": 5, "geometry": {"type": "Point", "coordinates": [-70.2143175, 41.671792]}, "properties": {"Line": 10, "Company": "Colonial Gas", "Division": "Cape", "Town": "South Yarmouth", "Town_Code": "SYA", "State": "MA", "Description__street_segment_": "1006-1252 MAIN ST, SYA, & FOREST RD", "Diameter": 8, "Material": "Steel-WI", "Operating_Pressure": "60", "NPA_Opportunity": "Yes - Potential NPA, partial scope", "F_LPP_Footage_": 6395, "F_LPP_Mileage__": 1.21, "lat": 41.671792, "lon": -70.2143175, "Mapped_address": "Forest Rd, Yarmouth, MA, USA", "FID": 5}}, {"type": "Feature", "id": 6, "geometry": {"type": "Point", "coordinates": [-70.1530351907598, 41.6679547178064]}, "properties": {"Line": 16, "Company": "Colonial Gas", "Division": "Cape", "Town": "South Yarmouth", "Town_Code": "SYA", "State": "MA", "Description__street_segment_": "711-881 MAIN ST, SYA, & 6-14 ANGUS AV", "Diameter": 6, "Material": "Steel-WI", "Operating_Pressure": "60", "NPA_Opportunity": "Yes - Potential NPA, partial scope", "F_LPP_Footage_": 3400, "F_LPP_Mileage__": 0.64, "lat": 41.6679547178064, "lon": -70.1530351907598, "Mapped_address": "796 Main St, West Dennis, MA 02670, USA", "FID": 6}}, {"type": "Feature", "id": 7, "geometry": {"type": "Point", "coordinates": [-70.1478652348916, 41.6674787458194]}, "properties": {"Line": 17, "Company": "Colonial Gas", "Division": "Cape", "Town": "South Yarmouth", "Town_Code": "SYA", "State": "MA", "Description__street_segment_": "878-1006 MAIN ST, SYA, & WILLOW ST", "Diameter": 6, "Material": "Plastic", "Operating_Pressure": "60", "NPA_Opportunity": "Yes - Potential NPA, partial scope", "F_LPP_Footage_": 2640, "F_LPP_Mileage__": 0.5, "lat": 41.6674787458194, "lon": -70.1478652348916, "Mapped_address": "942 Main St, West Dennis, MA 02670, USA", "FID": 7}}, {"type": "Feature", "id": 8, "geometry": {"type": "Point", "coordinates": [-70.203131, 41.6553349]}, "properties": {"Line": 17, "Company": "Colonial Gas", "Division": "Cape", "Town": "South Yarmouth", "Town_Code": "SYA", "State": "MA", "Description__street_segment_": "878-1006 MAIN ST, SYA, & WILLOW ST", "Diameter": 6, "Material": "Plastic", "Operating_Pressure": "60", "NPA_Opportunity": "Yes - Potential NPA, partial scope", "F_LPP_Footage_": 2640, "F_LPP_Mileage__": 0.5, "lat": 41.6553349, "lon": -70.203131, "Mapped_address": "Willow St, Yarmouth, MA 02664, USA", "FID": 8}}, {"type": "Feature", "id": 9, "geometry": {"type": "Point", "coordinates": [-70.1486272035985, 41.6678897107652]}, "properties": {"Line": 18, "Company": "Colonial Gas", "Division": "Cape", "Town": "South Yarmouth", "Town_Code": "SYA", "State": "MA", "Description__street_segment_": "928 MAIN ST, SYA", "Diameter": 2, "Material": "Steel-WI", "Operating_Pressure": "60", "NPA_Opportunity": "Yes - Potential NPA, entire scope", "F_LPP_Footage_": 330, "F_LPP_Mileage__": 0.06, "lat": 41.6678897107652, "lon": -70.1486272035985, "Mapped_address": "928 Main St, West Dennis, MA 02670, USA", "FID": 9}}, {"type": "Feature", "id": 10, "geometry": {"type": "Point", "coordinates": [-70.2461909, 41.6497188]}, "properties": {"Line": 20, "Company": "Colonial Gas", "Division": "Cape", "Town": "West Yarmouth", "Town_Code": "WYA", "State": "MA", "Description__street_segment_": "26-61 PROSPECT AV, WYA, & 2-21 CADET LN, KANES WY", "Diameter": 2, "Material": "Steel-WI", "Operating_Pressure": "60", "NPA_Opportunity": "Yes - Potential NPA", "F_LPP_Footage_": 1905, "F_LPP_Mileage__": 0.36, "lat": 41.6497188, "lon": -70.2461909, "Mapped_address": "Kanes Way, Yarmouth, MA 02673, USA", "FID": 10}}, {"type": "Feature", "id": 11, "geometry": {"type": "Point", "coordinates": [-70.2277517986743, 41.6500983075143]}, "properties": {"Line": 24, "Company": "Colonial Gas", "Division": "Cape", "Town": "West Yarmouth", "Town_Code": "WYA", "State": "MA", "Description__street_segment_": "615-658 MAIN ST, WYA, & COLLEGE ST", "Diameter": 6, "Material": "Steel-WI", "Operating_Pressure": "60", "NPA_Opportunity": "No - Impact to System Integration", "F_LPP_Footage_": 1365, "F_LPP_Mileage__": 0.26, "lat": 41.6500983075143, "lon": -70.2277517986743, "Mapped_address": "College St, Yarmouth, MA 02673, USA", "FID": 11}}, {"type": "Feature", "id": 12, "geometry": {"type": "Point", "coordinates": [-70.2621598211386, 41.6846893034965]}, "properties": {"Line": 25, "Company": "Colonial Gas", "Division": "Cape", "Town": "West Yarmouth Camp Grounds", "Town_Code": "WYC", "State": "MA", "Description__street_segment_": "1-31 SIMPSON AVE, WYC, ELDER, OAK, & CENTRE", "Diameter": 2, "Material": "Steel-WI", "Operating_Pressure": "60", "NPA_Opportunity": "Yes - Potential NPA, entire scope", "F_LPP_Footage_": 1640, "F_LPP_Mileage__": 0.31, "lat": 41.6846893034965, "lon": -70.2621598211386, "Mapped_address": "16 Simpson Ave, Hyannis, MA 02601, USA", "FID": 12}}, {"type": "Feature", "id": 13, "geometry": {"type": "Point", "coordinates": [-70.2605201856046, 41.6831690365802]}, "properties": {"Line": 26, "Company": "Colonial Gas", "Division": "Cape", "Town": "West Yarmouth Camp Grounds", "Town_Code": "WYC", "State": "MA", "Description__street_segment_": "14 GRACE AV, WYC, WILLOW ST", "Diameter": 1, "Material": "Steel-WI", "Operating_Pressure": "60", "NPA_Opportunity": "No - Impact to System Integration", "F_LPP_Footage_": 100, "F_LPP_Mileage__": 0.02, "lat": 41.6831690365802, "lon": -70.2605201856046, "Mapped_address": "14 Grace Ave, West Yarmouth, MA 02673, USA", "FID": 13}}, {"type": "Feature", "id": 14, "geometry": {"type": "Point", "coordinates": [-71.3130103252944, 42.6638388492762]}, "properties": {"Line": 30, "Company": "Colonial Gas", "Division": "Lowell", "Town": "Dracut", "Town_Code": "DRA", "State": "MA", "Description__street_segment_": "40-56 HENRY AV, DRA", "Diameter": 4, "Material": "Steel-WI", "Operating_Pressure": "LP to 60", "NPA_Opportunity": "Yes - Potential NPA, entire scope", "F_LPP_Footage_": 230, "F_LPP_Mileage__": 0.04, "lat": 42.6638388492762, "lon": -71.3130103252944, "Mapped_address": "48 Henry Ave, Lowell, MA 01850, USA", "FID": 14}}, {"type": "Feature", "id": 15, "geometry": {"type": "Point", "coordinates": [-70.2621389751413, 41.6835173615889]}, "properties": {"Line": 25, "Company": "Colonial Gas", "Division": "Cape", "Town": "West Yarmouth Camp Grounds", "Town_Code": "WYC", "State": "MA", "Description__street_segment_": "1-31 SIMPSON AVE, WYC, ELDER, OAK, & CENTRE", "Diameter": 2, "Material": "Steel-WI", "Operating_Pressure": "60", "NPA_Opportunity": "Yes - Potential NPA, entire scope", "F_LPP_Footage_": 1640, "F_LPP_Mileage__": 0.31, "lat": 41.6835173615889, "lon": -70.2621389751413, "Mapped_address": "Elder Ave, West Yarmouth, MA 02673, USA", "FID": 15}}, {"type": "Feature", "id": 16, "geometry": {"type": "Point", "coordinates": [-70.2619856531122, 41.6828781587002]}, "properties": {"Line": 25, "Company": "Colonial Gas", "Division": "Cape", "Town": "West Yarmouth Camp Grounds", "Town_Code": "WYC", "State": "MA", "Description__street_segment_": "1-31 SIMPSON AVE, WYC, ELDER, OAK, & CENTRE", "Diameter": 2, "Material": "Steel-WI", "Operating_Pressure": "60", "NPA_Opportunity": "Yes - Potential NPA, entire scope", "F_LPP_Footage_": 1640, "F_LPP_Mileage__": 0.31, "lat": 41.6828781587002, "lon": -70.2619856531122, "Mapped_address": "Oak Ave, West Yarmouth, MA 02673, USA", "FID": 16}}, {"type": "Feature", "id": 17, "geometry": {"type": "Point", "coordinates": [-70.2616208726865, 41.683417009919]}, "properties": {"Line": 25, "Company": "Colonial Gas", "Division": "Cape", "Town": "West Yarmouth Camp Grounds", "Town_Code": "WYC", "State": "MA", "Description__street_segment_": "1-31 SIMPSON AVE, WYC, ELDER, OAK, & CENTRE", "Diameter": 2, "Material": "Steel-WI", "Operating_Pressure": "60", "NPA_Opportunity": "Yes - Potential NPA, entire scope", "F_LPP_Footage_": 1640, "F_LPP_Mileage__": 0.31, "lat": 41.683417009919, "lon": -70.2616208726865, "Mapped_address": "Centre Ave, West Yarmouth, MA 02673, USA", "FID": 17}}, {"type": "Feature", "id": 18, "geometry": {"type": "Point", "coordinates": [-71.3006147028525, 42.6517361711737]}, "properties": {"Line": 45, "Company": "Colonial Gas", "Division": "Lowell", "Town": "Lowell", "Town_Code": "LOW", "State": "MA", "Description__street_segment_": "3-148 MYRTLE ST, LOW, & FIFTH ST, READ ST, SIXT", "Diameter": 4, "Material": "Cast Iron", "Operating_Pressure": "LP to 60", "NPA_Opportunity": "Yes - Potential NPA, entire scope", "F_LPP_Footage_": 2625, "F_LPP_Mileage__": 0.5, "lat": 42.6517361711737, "lon": -71.3006147028525, "Mapped_address": "6th St, Lowell, MA, USA", "FID": 18}}, {"type": "Feature", "id": 19, "geometry": {"type": "Point", "coordinates": [-70.2184355737096, 41.6503059907505]}, "properties": {"Line": 10, "Company": "Colonial Gas", "Division": "Cape", "Town": "South Yarmouth", "Town_Code": "SYA", "State": "MA", "Description__street_segment_": "1006-1252 MAIN ST, SYA, & FOREST RD", "Diameter": 8, "Material": "Steel-WI", "Operating_Pressure": "60", "NPA_Opportunity": "Yes - Potential NPA, partial scope", "F_LPP_Footage_": 6395, "F_LPP_Mileage__": 1.21, "lat": 41.6503059907505, "lon": -70.2184355737096, "Mapped_address": "1129 Main St, South Yarmouth, MA 02664, USA", "FID": 19}}, {"type": "Feature", "id": 20, "geometry": {"type": "Point", "coordinates": [-69.9598652751415, 41.6815666899305]}, "properties": {"Line": 2, "Company": "Colonial Gas", "Division": "Cape", "Town": "Chatham", "Town_Code": "CHM", "State": "MA", "Description__street_segment_": "393-679 MAIN ST, CHM, & LIBRARY LN, BEARSES BYW", "Diameter": 2, "Material": "Steel-WI", "Operating_Pressure": "60", "NPA_Opportunity": "Yes - Potential NPA, partial scope", "F_LPP_Footage_": 3845, "F_LPP_Mileage__": 0.73, "lat": 41.6815666899305, "lon": -69.9598652751415, "Mapped_address": "Bearses Byway, Chatham, MA, USA", "FID": 20}}, {"type": "Feature", "id": 21, "geometry": {"type": "Point", "coordinates": [-70.273492, 41.650917]}, "properties": {"Line": 26, "Company": "Colonial Gas", "Division": "Cape", "Town": "West Yarmouth Camp Grounds", "Town_Code": "WYC", "State": "MA", "Description__street_segment_": "14 GRACE AV, WYC, WILLOW ST", "Diameter": 1, "Material": "Steel-WI", "Operating_Pressure": "60", "NPA_Opportunity": "No - Impact to System Integration", "F_LPP_Footage_": 100, "F_LPP_Mileage__": 0.02, "lat": 41.650917, "lon": -70.273492, "Mapped_address": "Willow St, Yarmouth, MA, USA", "FID": 21}}, {"type": "Feature", "id": 22, "geometry": {"type": "Point", "coordinates": [-71.2987741, 42.6497841]}, "properties": {"Line": 44, "Company": "Colonial Gas", "Division": "Lowell", "Town": "Lowell", "Town_Code": "LOW", "State": "MA", "Description__street_segment_": "3-143 DURANT ST, LOW, & THIRDT ST, SIMPSON ST", "Diameter": 4, "Material": "Cast Iron", "Operating_Pressure": "LP to 60", "NPA_Opportunity": "Yes - Potential NPA, entire scope", "F_LPP_Footage_": 4020, "F_LPP_Mileage__": 0.76, "lat": 42.6497841, "lon": -71.2987741, "Mapped_address": "3rd St, Lowell, MA 01850, USA", "FID": 22}}, {"type": "Feature", "id": 23, "geometry": {"type": "Point", "coordinates": [-71.3012486991469, 42.6511586357285]}, "properties": {"Line": 45, "Company": "Colonial Gas", "Division": "Lowell", "Town": "Lowell", "Town_Code": "LOW", "State": "MA", "Description__street_segment_": "3-148 MYRTLE ST, LOW, & FIFTH ST, READ ST, SIXT", "Diameter": 4, "Material": "Cast Iron", "Operating_Pressure": "LP to 60", "NPA_Opportunity": "Yes - Potential NPA, entire scope", "F_LPP_Footage_": 2625, "F_LPP_Mileage__": 0.5, "lat": 42.6511586357285, "lon": -71.3012486991469, "Mapped_address": "5th St, Lowell, MA 01850, USA", "FID": 23}}, {"type": "Feature", "id": 24, "geometry": {"type": "Point", "coordinates": [-69.9530663125356, 41.6851339172976]}, "properties": {"Line": 1, "Company": "Colonial Gas", "Division": "Cape", "Town": "Chatham", "Town_Code": "CHM", "State": "MA", "Description__street_segment_": "151-297 SEAVIEW ST, CHM", "Diameter": 2, "Material": "Steel-WI", "Operating_Pressure": "60", "NPA_Opportunity": "No - Impact to System Integration", "F_LPP_Footage_": 930, "F_LPP_Mileage__": 0.18, "lat": 41.6851339172976, "lon": -69.9530663125356, "Mapped_address": "224 Seaview St, Chatham, MA 02633, USA", "FID": 24}}, {"type": "Feature", "id": 25, "geometry": {"type": "Point", "coordinates": [-69.9579809344619, 41.6807167683234]}, "properties": {"Line": 2, "Company": "Colonial Gas", "Division": "Cape", "Town": "Chatham", "Town_Code": "CHM", "State": "MA", "Description__street_segment_": "393-679 MAIN ST, CHM, & LIBRARY LN, BEARSES BYW", "Diameter": 2, "Material": "Steel-WI", "Operating_Pressure": "60", "NPA_Opportunity": "Yes - Potential NPA, partial scope", "F_LPP_Footage_": 3845, "F_LPP_Mileage__": 0.73, "lat": 41.6807167683234, "lon": -69.9579809344619, "Mapped_address": "536 Main St, Chatham, MA 02633, USA", "FID": 25}}, {"type": "Feature", "id": 26, "geometry": {"type": "Point", "coordinates": [-69.9577024701059, 41.6818144589827]}, "properties": {"Line": 2, "Company": "Colonial Gas", "Division": "Cape", "Town": "Chatham", "Town_Code": "CHM", "State": "MA", "Description__street_segment_": "393-679 MAIN ST, CHM, & LIBRARY LN, BEARSES BYW", "Diameter": 2, "Material": "Steel-WI", "Operating_Pressure": "60", "NPA_Opportunity": "Yes - Potential NPA, partial scope", "F_LPP_Footage_": 3845, "F_LPP_Mileage__": 0.73, "lat": 41.6818144589827, "lon": -69.9577024701059, "Mapped_address": "Library Ln, Chatham, MA 02633, USA", "FID": 26}}, {"type": "Feature", "id": 27, "geometry": {"type": "Point", "coordinates": [-70.4749831735184, 41.6511688001487]}, "properties": {"Line": 3, "Company": "Colonial Gas", "Division": "Cape", "Town": "Mashpee", "Town_Code": "MAS", "State": "MA", "Description__street_segment_": "4-56 S SANDWICH RD, MAS", "Diameter": 2, "Material": "Steel-WI", "Operating_Pressure": "60", "NPA_Opportunity": "No - Impact to System Integration", "F_LPP_Footage_": 1425, "F_LPP_Mileage__": 0.27, "lat": 41.6511688001487, "lon": -70.4749831735184, "Mapped_address": "30 S Sandwich Rd, Mashpee, MA 02649, USA", "FID": 27}}, {"type": "Feature", "id": 28, "geometry": {"type": "Point", "coordinates": [-70.6129508088696, 41.6468443342409]}, "properties": {"Line": 6, "Company": "Colonial Gas", "Division": "Cape", "Town": "North Falmouth", "Town_Code": "NFA", "State": "MA", "Description__street_segment_": "10-13 COUNTY RD, NFA", "Diameter": 2, "Material": "Steel-WI", "Operating_Pressure": "60", "NPA_Opportunity": "No - Impact to System Integration", "F_LPP_Footage_": 675, "F_LPP_Mileage__": 0.13, "lat": 41.6468443342409, "lon": -70.6129508088696, "Mapped_address": "11 County Rd, North Falmouth, MA 02556, USA", "FID": 28}}, {"type": "Feature", "id": 29, "geometry": {"type": "Point", "coordinates": [-70.6129508088696, 41.6468443342409]}, "properties": {"Line": 7, "Company": "Colonial Gas", "Division": "Cape", "Town": "North Falmouth", "Town_Code": "NFA", "State": "MA", "Description__street_segment_": "10-13 COUNTY RD, NFA, RR-XING", "Diameter": 2, "Material": "Steel-WI", "Operating_Pressure": "60", "NPA_Opportunity": "No - Impact to System Integration", "F_LPP_Footage_": 100, "F_LPP_Mileage__": 0.02, "lat": 41.6468443342409, "lon": -70.6129508088696, "Mapped_address": "11 County Rd, North Falmouth, MA 02556, USA", "FID": 29}}, {"type": "Feature", "id": 30, "geometry": {"type": "Point", "coordinates": [-70.3913579006867, 41.6342433598598]}, "properties": {"Line": 8, "Company": "Colonial Gas", "Division": "Cape", "Town": "Osterville", "Town_Code": "OST", "State": "MA", "Description__street_segment_": "27 SEAPUIT RD, OST", "Diameter": 2, "Material": "Steel-WI", "Operating_Pressure": "60", "NPA_Opportunity": "No - Impact to System Integration", "F_LPP_Footage_": 240, "F_LPP_Mileage__": 0.05, "lat": 41.6342433598598, "lon": -70.3913579006867, "Mapped_address": "27 Seapuit Rd, Osterville, MA 02655, USA", "FID": 30}}, {"type": "Feature", "id": 31, "geometry": {"type": "Point", "coordinates": [-70.6162316201197, 41.7007491296471]}, "properties": {"Line": 9, "Company": "Colonial Gas", "Division": "Cape", "Town": "Pocasset", "Town_Code": "POC", "State": "MA", "Description__street_segment_": "720-742 SHORE RD, POC, RR-XING", "Diameter": 4, "Material": "Steel-WI", "Operating_Pressure": "60", "NPA_Opportunity": "No - Impact to System Integration", "F_LPP_Footage_": 275, "F_LPP_Mileage__": 0.05, "lat": 41.7007491296471, "lon": -70.6162316201197, "Mapped_address": "731 Shore Rd, Pocasset, MA 02559, USA", "FID": 31}}, {"type": "Feature", "id": 32, "geometry": {"type": "Point", "coordinates": [-70.1947322386601, 41.6680869064161]}, "properties": {"Line": 11, "Company": "Colonial Gas", "Division": "Cape", "Town": "South Yarmouth", "Town_Code": "SYA", "State": "MA", "Description__street_segment_": "1-17 MAYFLOWER LN, SYA", "Diameter": 2, "Material": "Steel-WI", "Operating_Pressure": "60", "NPA_Opportunity": "Yes - Potential NPA, entire scope", "F_LPP_Footage_": 300, "F_LPP_Mileage__": 0.06, "lat": 41.6680869064161, "lon": -70.1947322386601, "Mapped_address": "9 Mayflower Ln, South Yarmouth, MA 02664, USA", "FID": 32}}, {"type": "Feature", "id": 33, "geometry": {"type": "Point", "coordinates": [-70.1989978582935, 41.670138837316]}, "properties": {"Line": 12, "Company": "Colonial Gas", "Division": "Cape", "Town": "South Yarmouth", "Town_Code": "SYA", "State": "MA", "Description__street_segment_": "349-376 LONG POND DR, SYA, & 11-15 POND VIEW LN", "Diameter": 2, "Material": "Steel-WI", "Operating_Pressure": "60", "NPA_Opportunity": "Yes - Potential NPA, partial scope", "F_LPP_Footage_": 745, "F_LPP_Mileage__": 0.14, "lat": 41.670138837316, "lon": -70.1989978582935, "Mapped_address": "13 Pondview Ln, South Yarmouth, MA 02664, USA", "FID": 33}}, {"type": "Feature", "id": 34, "geometry": {"type": "Point", "coordinates": [-70.1983165488743, 41.6708337579988]}, "properties": {"Line": 12, "Company": "Colonial Gas", "Division": "Cape", "Town": "South Yarmouth", "Town_Code": "SYA", "State": "MA", "Description__street_segment_": "349-376 LONG POND DR, SYA, & 11-15 POND VIEW LN", "Diameter": 2, "Material": "Steel-WI", "Operating_Pressure": "60", "NPA_Opportunity": "Yes - Potential NPA, partial scope", "F_LPP_Footage_": 745, "F_LPP_Mileage__": 0.14, "lat": 41.6708337579988, "lon": -70.1983165488743, "Mapped_address": "362 Long Pond Dr, South Yarmouth, MA 02664, USA", "FID": 34}}, {"type": "Feature", "id": 35, "geometry": {"type": "Point", "coordinates": [-70.2046956269334, 41.6523094008699]}, "properties": {"Line": 13, "Company": "Colonial Gas", "Division": "Cape", "Town": "South Yarmouth", "Town_Code": "SYA", "State": "MA", "Description__street_segment_": "5-22 EVERGREEN ST, SYA", "Diameter": 2, "Material": "Steel-WI", "Operating_Pressure": "60", "NPA_Opportunity": "Yes - Potential NPA, partial scope", "F_LPP_Footage_": 2055, "F_LPP_Mileage__": 0.39, "lat": 41.6523094008699, "lon": -70.2046956269334, "Mapped_address": "13 Evergreen St, South Yarmouth, MA 02664, USA", "FID": 35}}, {"type": "Feature", "id": 36, "geometry": {"type": "Point", "coordinates": [-70.1927631275614, 41.6647018971711]}, "properties": {"Line": 14, "Company": "Colonial Gas", "Division": "Cape", "Town": "South Yarmouth", "Town_Code": "SYA", "State": "MA", "Description__street_segment_": "5-28 THEATER COLONY LN, SYA, 3-11 KAREN WY", "Diameter": 2, "Material": "Steel-WI", "Operating_Pressure": "60", "NPA_Opportunity": "Yes - Potential NPA, entire scope", "F_LPP_Footage_": 840, "F_LPP_Mileage__": 0.16, "lat": 41.6647018971711, "lon": -70.1927631275614, "Mapped_address": "16 Theater Colony Rd, South Yarmouth, MA 02664, USA", "FID": 36}}, {"type": "Feature", "id": 37, "geometry": {"type": "Point", "coordinates": [-70.1916230774077, 41.664218072344]}, "properties": {"Line": 14, "Company": "Colonial Gas", "Division": "Cape", "Town": "South Yarmouth", "Town_Code": "SYA", "State": "MA", "Description__street_segment_": "5-28 THEATER COLONY LN, SYA, 3-11 KAREN WY", "Diameter": 2, "Material": "Steel-WI", "Operating_Pressure": "60", "NPA_Opportunity": "Yes - Potential NPA, entire scope", "F_LPP_Footage_": 840, "F_LPP_Mileage__": 0.16, "lat": 41.664218072344, "lon": -70.1916230774077, "Mapped_address": "7 Karen Way, South Yarmouth, MA 02664, USA", "FID": 37}}, {"type": "Feature", "id": 38, "geometry": {"type": "Point", "coordinates": [-70.2056297900041, 41.644739589427]}, "properties": {"Line": 15, "Company": "Colonial Gas", "Division": "Cape", "Town": "South Yarmouth", "Town_Code": "SYA", "State": "MA", "Description__street_segment_": "6-10 SYRITHAS WY, SYA", "Diameter": 2, "Material": "Steel-WI", "Operating_Pressure": "60", "NPA_Opportunity": "Yes - Potential NPA, entire scope", "F_LPP_Footage_": 275, "F_LPP_Mileage__": 0.05, "lat": 41.644739589427, "lon": -70.2056297900041, "Mapped_address": "8 Syritha's Way, South Yarmouth, MA 02664, USA", "FID": 38}}, {"type": "Feature", "id": 39, "geometry": {"type": "Point", "coordinates": [-70.2174592120067, 41.6514141806448]}, "properties": {"Line": 16, "Company": "Colonial Gas", "Division": "Cape", "Town": "South Yarmouth", "Town_Code": "SYA", "State": "MA", "Description__street_segment_": "711-881 MAIN ST, SYA, & 6-14 ANGUS AV", "Diameter": 6, "Material": "Steel-WI", "Operating_Pressure": "60", "NPA_Opportunity": "Yes - Potential NPA, partial scope", "F_LPP_Footage_": 3400, "F_LPP_Mileage__": 0.64, "lat": 41.6514141806448, "lon": -70.2174592120067, "Mapped_address": "10 Angus Ave, South Yarmouth, MA 02664, USA", "FID": 39}}, {"type": "Feature", "id": 40, "geometry": {"type": "Point", "coordinates": [-70.2292925935803, 41.6474572425985]}, "properties": {"Line": 19, "Company": "Colonial Gas", "Division": "Cape", "Town": "West Yarmouth", "Town_Code": "WYA", "State": "MA", "Description__street_segment_": "10-51 IROQUOIS BLVD, WYA", "Diameter": 2, "Material": "Steel-WI", "Operating_Pressure": "60", "NPA_Opportunity": "No - Impact to System Integration", "F_LPP_Footage_": 800, "F_LPP_Mileage__": 0.15, "lat": 41.6474572425985, "lon": -70.2292925935803, "Mapped_address": "30 Iroquois Blvd, West Yarmouth, MA 02673, USA", "FID": 40}}, {"type": "Feature", "id": 41, "geometry": {"type": "Point", "coordinates": [-70.2470380125838, 41.6487677837845]}, "properties": {"Line": 20, "Company": "Colonial Gas", "Division": "Cape", "Town": "West Yarmouth", "Town_Code": "WYA", "State": "MA", "Description__street_segment_": "26-61 PROSPECT AV, WYA, & 2-21 CADET LN, KANES WY", "Diameter": 2, "Material": "Steel-WI", "Operating_Pressure": "60", "NPA_Opportunity": "Yes - Potential NPA", "F_LPP_Footage_": 1905, "F_LPP_Mileage__": 0.36, "lat": 41.6487677837845, "lon": -70.2470380125838, "Mapped_address": "11 Cadet Ln, West Yarmouth, MA 02673, USA", "FID": 41}}, {"type": "Feature", "id": 42, "geometry": {"type": "Point", "coordinates": [-70.2482065547773, 41.6474211027589]}, "properties": {"Line": 20, "Company": "Colonial Gas", "Division": "Cape", "Town": "West Yarmouth", "Town_Code": "WYA", "State": "MA", "Description__street_segment_": "26-61 PROSPECT AV, WYA, & 2-21 CADET LN, KANES WY", "Diameter": 2, "Material": "Steel-WI", "Operating_Pressure": "60", "NPA_Opportunity": "Yes - Potential NPA", "F_LPP_Footage_": 1905, "F_LPP_Mileage__": 0.36, "lat": 41.6474211027589, "lon": -70.2482065547773, "Mapped_address": "43 Prospect Ave, West Yarmouth, MA 02673, USA", "FID": 42}}, {"type": "Feature", "id": 43, "geometry": {"type": "Point", "coordinates": [-70.2384352, 41.6504182]}, "properties": {"Line": 21, "Company": "Colonial Gas", "Division": "Cape", "Town": "West Yarmouth", "Town_Code": "WYA", "State": "MA", "Description__street_segment_": "411-550 MAIN ST, WYA", "Diameter": 6, "Material": "Plastic", "Operating_Pressure": "60", "NPA_Opportunity": "Yes - Potential NPA, partial scope", "F_LPP_Footage_": 4085, "F_LPP_Mileage__": 0.77, "lat": 41.6504182, "lon": -70.2384352, "Mapped_address": "480 Main St, West Yarmouth, MA 02673, USA", "FID": 43}}, {"type": "Feature", "id": 44, "geometry": {"type": "Point", "coordinates": [-70.2350069037592, 41.6495759886901]}, "properties": {"Line": 22, "Company": "Colonial Gas", "Division": "Cape", "Town": "West Yarmouth", "Town_Code": "WYA", "State": "MA", "Description__street_segment_": "517-533 MAIN ST, WYA", "Diameter": 2, "Material": "Steel-WI", "Operating_Pressure": "60", "NPA_Opportunity": "Yes - Potential NPA, entire scope", "F_LPP_Footage_": 495, "F_LPP_Mileage__": 0.09, "lat": 41.6495759886901, "lon": -70.2350069037592, "Mapped_address": "525 Main St, West Yarmouth, MA 02673, USA", "FID": 44}}, {"type": "Feature", "id": 45, "geometry": {"type": "Point", "coordinates": [-70.2675059700215, 41.6574376646925]}, "properties": {"Line": 23, "Company": "Colonial Gas", "Division": "Cape", "Town": "West Yarmouth", "Town_Code": "WYA", "State": "MA", "Description__street_segment_": "5-77 MAIN ST, WYA", "Diameter": 6, "Material": "Plastic", "Operating_Pressure": "60", "NPA_Opportunity": "Yes - Potential NPA, partial scope", "F_LPP_Footage_": 1630, "F_LPP_Mileage__": 0.31, "lat": 41.6574376646925, "lon": -70.2675059700215, "Mapped_address": "41 Main St, West Yarmouth, MA 02673, USA", "FID": 45}}, {"type": "Feature", "id": 46, "geometry": {"type": "Point", "coordinates": [-70.2270617905937, 41.6491077881311]}, "properties": {"Line": 24, "Company": "Colonial Gas", "Division": "Cape", "Town": "West Yarmouth", "Town_Code": "WYA", "State": "MA", "Description__street_segment_": "615-658 MAIN ST, WYA, & COLLEGE ST", "Diameter": 6, "Material": "Steel-WI", "Operating_Pressure": "60", "NPA_Opportunity": "No - Impact to System Integration", "F_LPP_Footage_": 1365, "F_LPP_Mileage__": 0.26, "lat": 41.6491077881311, "lon": -70.2270617905937, "Mapped_address": "636 Main St, West Yarmouth, MA 02673, USA", "FID": 46}}, {"type": "Feature", "id": 47, "geometry": {"type": "Point", "coordinates": [-70.2570522, 41.698931]}, "properties": {"Line": 27, "Company": "Colonial Gas", "Division": "Cape", "Town": "Yarmouth Port", "Town_Code": "YAP", "State": "MA", "Description__street_segment_": "86-91 WILLOW ST, YAP, RR-XING", "Diameter": 3, "Material": "Steel-WI", "Operating_Pressure": "60", "NPA_Opportunity": "No - Impact to System Integration", "F_LPP_Footage_": 185, "F_LPP_Mileage__": 0.04, "lat": 41.698931, "lon": -70.2570522, "Mapped_address": "88 Willow St, Yarmouth Port, MA 02675, USA", "FID": 47}}, {"type": "Feature", "id": 48, "geometry": {"type": "Point", "coordinates": [-71.3708193297842, 42.6358697037147]}, "properties": {"Line": 28, "Company": "Colonial Gas", "Division": "Lowell", "Town": "Chelmsford", "Town_Code": "CFD", "State": "MA", "Description__street_segment_": "78-189 MIDDLESEX ST, CFD", "Diameter": 6, "Material": "Cast Iron", "Operating_Pressure": "LP", "NPA_Opportunity": "No - Impact to System Integration", "F_LPP_Footage_": 3255, "F_LPP_Mileage__": 0.62, "lat": 42.6358697037147, "lon": -71.3708193297842, "Mapped_address": "133 Middlesex St, North Chelmsford, MA 01863, USA", "FID": 48}}, {"type": "Feature", "id": 49, "geometry": {"type": "Point", "coordinates": [-71.296944416118, 42.6671901844237]}, "properties": {"Line": 29, "Company": "Colonial Gas", "Division": "Lowell", "Town": "Dracut", "Town_Code": "DRA", "State": "MA", "Description__street_segment_": "3-86 CHEEVER AV, DRA, ASHTON AV, & THISSELL AV", "Diameter": 4, "Material": "Cast Iron", "Operating_Pressure": "LP", "NPA_Opportunity": "No - Impact to System Integration", "F_LPP_Footage_": 2010, "F_LPP_Mileage__": 0.38, "lat": 42.6671901844237, "lon": -71.296944416118, "Mapped_address": "44 Cheever Ave, Dracut, MA 01826, USA", "FID": 49}}, {"type": "Feature", "id": 50, "geometry": {"type": "Point", "coordinates": [-71.2970407, 42.6656759]}, "properties": {"Line": 29, "Company": "Colonial Gas", "Division": "Lowell", "Town": "Dracut", "Town_Code": "DRA", "State": "MA", "Description__street_segment_": "3-86 CHEEVER AV, DRA, ASHTON AV, & THISSELL AV", "Diameter": 4, "Material": "Cast Iron", "Operating_Pressure": "LP", "NPA_Opportunity": "No - Impact to System Integration", "F_LPP_Footage_": 2010, "F_LPP_Mileage__": 0.38, "lat": 42.6656759, "lon": -71.2970407, "Mapped_address": "Ashton Ave, Dracut, MA, USA", "FID": 50}}, {"type": "Feature", "id": 51, "geometry": {"type": "Point", "coordinates": [-71.2934775589093, 42.6653440325948]}, "properties": {"Line": 29, "Company": "Colonial Gas", "Division": "Lowell", "Town": "Dracut", "Town_Code": "DRA", "State": "MA", "Description__street_segment_": "3-86 CHEEVER AV, DRA, ASHTON AV, & THISSELL AV", "Diameter": 4, "Material": "Cast Iron", "Operating_Pressure": "LP", "NPA_Opportunity": "No - Impact to System Integration", "F_LPP_Footage_": 2010, "F_LPP_Mileage__": 0.38, "lat": 42.6653440325948, "lon": -71.2934775589093, "Mapped_address": "Thissell Ave, Dracut, MA 01826, USA", "FID": 51}}, {"type": "Feature", "id": 52, "geometry": {"type": "Point", "coordinates": [-71.2932637981304, 42.6249892970133]}, "properties": {"Line": 31, "Company": "Colonial Gas", "Division": "Lowell", "Town": "Lowell", "Town_Code": "LOW", "State": "MA", "Description__street_segment_": "1081-1166 LAWRENCE ST, LOW", "Diameter": 6, "Material": "Cast Iron", "Operating_Pressure": "LP", "NPA_Opportunity": "No - Impact to System Integration", "F_LPP_Footage_": 1135, "F_LPP_Mileage__": 0.21, "lat": 42.6249892970133, "lon": -71.2932637981304, "Mapped_address": "1123 Lawrence St, Lowell, MA 01852, USA", "FID": 52}}, {"type": "Feature", "id": 53, "geometry": {"type": "Point", "coordinates": [-71.319439045965, 42.64288611046]}, "properties": {"Line": 32, "Company": "Colonial Gas", "Division": "Lowell", "Town": "Lowell", "Town_Code": "LOW", "State": "MA", "Description__street_segment_": "116-282 FLETCHER ST, LOW", "Diameter": 6, "Material": "Cast Iron", "Operating_Pressure": "LP", "NPA_Opportunity": "No - Impact to System Integration", "F_LPP_Footage_": 925, "F_LPP_Mileage__": 0.18, "lat": 42.64288611046, "lon": -71.319439045965, "Mapped_address": "199 Fletcher St, Lowell, MA 01854, USA", "FID": 53}}, {"type": "Feature", "id": 54, "geometry": {"type": "Point", "coordinates": [-71.2899734331416, 42.6238167395501]}, "properties": {"Line": 33, "Company": "Colonial Gas", "Division": "Lowell", "Town": "Lowell", "Town_Code": "LOW", "State": "MA", "Description__street_segment_": "1170-1283 LAWRENCE ST, LOW", "Diameter": 4, "Material": "Cast Iron", "Operating_Pressure": "LP", "NPA_Opportunity": "No - Impact to System Integration", "F_LPP_Footage_": 1080, "F_LPP_Mileage__": 0.2, "lat": 42.6238167395501, "lon": -71.2899734331416, "Mapped_address": "1226 Lawrence St, Lowell, MA 01852, USA", "FID": 54}}, {"type": "Feature", "id": 55, "geometry": {"type": "Point", "coordinates": [-71.3047218516457, 42.6344850455226]}, "properties": {"Line": 34, "Company": "Colonial Gas", "Division": "Lowell", "Town": "Lowell", "Town_Code": "LOW", "State": "MA", "Description__street_segment_": "12-174 CROSBY ST, LOW, & 7-99 WHIPPLE ST", "Diameter": 6, "Material": "Cast Iron", "Operating_Pressure": "LP to 60", "NPA_Opportunity": "Yes - Potential NPA, entire scope", "F_LPP_Footage_": 5220, "F_LPP_Mileage__": 0.99, "lat": 42.6344850455226, "lon": -71.3047218516457, "Mapped_address": "53 Whipple St, Lowell, MA 01852, USA", "FID": 55}}, {"type": "Feature", "id": 56, "geometry": {"type": "Point", "coordinates": [-71.3063663863552, 42.6331903208914]}, "properties": {"Line": 34, "Company": "Colonial Gas", "Division": "Lowell", "Town": "Lowell", "Town_Code": "LOW", "State": "MA", "Description__street_segment_": "12-174 CROSBY ST, LOW, & 7-99 WHIPPLE ST", "Diameter": 6, "Material": "Cast Iron", "Operating_Pressure": "LP to 60", "NPA_Opportunity": "Yes - Potential NPA, entire scope", "F_LPP_Footage_": 5220, "F_LPP_Mileage__": 0.99, "lat": 42.6331903208914, "lon": -71.3063663863552, "Mapped_address": "93 Crosby St, Lowell, MA 01852, USA", "FID": 56}}, {"type": "Feature", "id": 57, "geometry": {"type": "Point", "coordinates": [-71.305477474871, 42.6538891253854]}, "properties": {"Line": 35, "Company": "Colonial Gas", "Division": "Lowell", "Town": "Lowell", "Town_Code": "LOW", "State": "MA", "Description__street_segment_": "1-4 JEWETT AV, LOW", "Diameter": 6, "Material": "Steel-WI", "Operating_Pressure": "LP to 60", "NPA_Opportunity": "Yes - Potential NPA, entire scope", "F_LPP_Footage_": 185, "F_LPP_Mileage__": 0.04, "lat": 42.6538891253854, "lon": -71.305477474871, "Mapped_address": "2 Jewett Ave, Lowell, MA 01850, USA", "FID": 57}}, {"type": "Feature", "id": 58, "geometry": {"type": "Point", "coordinates": [-71.2877921631443, 42.6445218123562]}, "properties": {"Line": 36, "Company": "Colonial Gas", "Division": "Lowell", "Town": "Lowell", "Town_Code": "LOW", "State": "MA", "Description__street_segment_": "14-59 BARASFORD AV, LOW", "Diameter": 4, "Material": "Cast Iron", "Operating_Pressure": "LP", "NPA_Opportunity": "Yes - Potential NPA, entire scope", "F_LPP_Footage_": 630, "F_LPP_Mileage__": 0.12, "lat": 42.6445218123562, "lon": -71.2877921631443, "Mapped_address": "36 Barasford Ave, Lowell, MA 01852, USA", "FID": 58}}, {"type": "Feature", "id": 59, "geometry": {"type": "Point", "coordinates": [-71.331299, 42.6410131]}, "properties": {"Line": 37, "Company": "Colonial Gas", "Division": "Lowell", "Town": "Lowell", "Town_Code": "LOW", "State": "MA", "Description__street_segment_": "153-233 WALKER ST, LOW", "Diameter": 4, "Material": "Cast Iron", "Operating_Pressure": "LP & LP to 60", "NPA_Opportunity": "Yes - Potential NPA, entire scope", "F_LPP_Footage_": 2380, "F_LPP_Mileage__": 0.45, "lat": 42.6410131, "lon": -71.331299, "Mapped_address": "193 Walker St, Lowell, MA 01854, USA", "FID": 59}}, {"type": "Feature", "id": 60, "geometry": {"type": "Point", "coordinates": [-71.327544153684, 42.645147319124]}, "properties": {"Line": 38, "Company": "Colonial Gas", "Division": "Lowell", "Town": "Lowell", "Town_Code": "LOW", "State": "MA", "Description__street_segment_": "15-36 OLIVER ST, LOW, & 92-102 WANNALANCIT ST", "Diameter": 4, "Material": "Cast Iron", "Operating_Pressure": "LP to 60", "NPA_Opportunity": "Yes - Potential NPA, entire scope", "F_LPP_Footage_": 600, "F_LPP_Mileage__": 0.11, "lat": 42.645147319124, "lon": -71.327544153684, "Mapped_address": "25 Oliver St, Lowell, MA 01854, USA", "FID": 60}}, {"type": "Feature", "id": 61, "geometry": {"type": "Point", "coordinates": [-71.3281635871791, 42.6451029022328]}, "properties": {"Line": 38, "Company": "Colonial Gas", "Division": "Lowell", "Town": "Lowell", "Town_Code": "LOW", "State": "MA", "Description__street_segment_": "15-36 OLIVER ST, LOW, & 92-102 WANNALANCIT ST", "Diameter": 4, "Material": "Cast Iron", "Operating_Pressure": "LP to 60", "NPA_Opportunity": "Yes - Potential NPA, entire scope", "F_LPP_Footage_": 600, "F_LPP_Mileage__": 0.11, "lat": 42.6451029022328, "lon": -71.3281635871791, "Mapped_address": "97 Wannalancit St, Lowell, MA 01854, USA", "FID": 61}}, {"type": "Feature", "id": 62, "geometry": {"type": "Point", "coordinates": [-71.3328949856609, 42.640024926956]}, "properties": {"Line": 39, "Company": "Colonial Gas", "Division": "Lowell", "Town": "Lowell", "Town_Code": "LOW", "State": "MA", "Description__street_segment_": "180-210 WILDER ST, LOW", "Diameter": 6, "Material": "Cast Iron", "Operating_Pressure": "LP", "NPA_Opportunity": "No - Impact to System Integration", "F_LPP_Footage_": 290, "F_LPP_Mileage__": 0.05, "lat": 42.640024926956, "lon": -71.3328949856609, "Mapped_address": "195 Wilder St, Lowell, MA 01851, USA", "FID": 62}}, {"type": "Feature", "id": 63, "geometry": {"type": "Point", "coordinates": [-71.3087723706455, 42.6392895318386]}, "properties": {"Line": 40, "Company": "Colonial Gas", "Division": "Lowell", "Town": "Lowell", "Town_Code": "LOW", "State": "MA", "Description__street_segment_": "24-360 GORHAM ST, LOW, & 25-42 UNION ST", "Diameter": 6, "Material": "Cast Iron", "Operating_Pressure": "LP", "NPA_Opportunity": "No - Impact to System Integration", "F_LPP_Footage_": 1980, "F_LPP_Mileage__": 0.38, "lat": 42.6392895318386, "lon": -71.3087723706455, "Mapped_address": "192 Gorham St, Lowell, MA 01852, USA", "FID": 63}}, {"type": "Feature", "id": 64, "geometry": {"type": "Point", "coordinates": [-71.3080669, 42.6392377]}, "properties": {"Line": 40, "Company": "Colonial Gas", "Division": "Lowell", "Town": "Lowell", "Town_Code": "LOW", "State": "MA", "Description__street_segment_": "24-360 GORHAM ST, LOW, & 25-42 UNION ST", "Diameter": 6, "Material": "Cast Iron", "Operating_Pressure": "LP", "NPA_Opportunity": "No - Impact to System Integration", "F_LPP_Footage_": 1980, "F_LPP_Mileage__": 0.38, "lat": 42.6392377, "lon": -71.3080669, "Mapped_address": "33 Union St, Lowell, MA 01852, USA", "FID": 64}}, {"type": "Feature", "id": 65, "geometry": {"type": "Point", "coordinates": [-71.2933715546383, 42.6536458317314]}, "properties": {"Line": 41, "Company": "Colonial Gas", "Division": "Lowell", "Town": "Lowell", "Town_Code": "LOW", "State": "MA", "Description__street_segment_": "275-175 CHRISTIAN ST, LOW, & 203-288 TENTH ST", "Diameter": 4, "Material": "Cast Iron", "Operating_Pressure": "LP", "NPA_Opportunity": "No - Impact to System Integration", "F_LPP_Footage_": 3380, "F_LPP_Mileage__": 0.64, "lat": 42.6536458317314, "lon": -71.2933715546383, "Mapped_address": "225 Christian St, Lowell, MA 01850, USA", "FID": 65}}, {"type": "Feature", "id": 66, "geometry": {"type": "Point", "coordinates": [-71.2936636438664, 42.6555189752843]}, "properties": {"Line": 41, "Company": "Colonial Gas", "Division": "Lowell", "Town": "Lowell", "Town_Code": "LOW", "State": "MA", "Description__street_segment_": "275-175 CHRISTIAN ST, LOW, & 203-288 TENTH ST", "Diameter": 4, "Material": "Cast Iron", "Operating_Pressure": "LP", "NPA_Opportunity": "No - Impact to System Integration", "F_LPP_Footage_": 3380, "F_LPP_Mileage__": 0.64, "lat": 42.6555189752843, "lon": -71.2936636438664, "Mapped_address": "245 10th St, Lowell, MA 01850, USA", "FID": 66}}, {"type": "Feature", "id": 67, "geometry": {"type": "Point", "coordinates": [-71.3068215335178, 42.6395882037425]}, "properties": {"Line": 42, "Company": "Colonial Gas", "Division": "Lowell", "Town": "Lowell", "Town_Code": "LOW", "State": "MA", "Description__street_segment_": "278-627 CENTRAL ST, LOW", "Diameter": 6, "Material": "Cast Iron", "Operating_Pressure": "LP", "NPA_Opportunity": "No - Impact to System Integration", "F_LPP_Footage_": 2085, "F_LPP_Mileage__": 0.39, "lat": 42.6395882037425, "lon": -71.3068215335178, "Mapped_address": "452 Central St, Lowell, MA 01852, USA", "FID": 67}}, {"type": "Feature", "id": 68, "geometry": {"type": "Point", "coordinates": [-71.3114298248283, 42.6581457059421]}, "properties": {"Line": 43, "Company": "Colonial Gas", "Division": "Lowell", "Town": "Lowell", "Town_Code": "LOW", "State": "MA", "Description__street_segment_": "28-56 AIKEN AV, LOW, & 37-45 DALTON ST", "Diameter": 6, "Material": "Cast Iron", "Operating_Pressure": "LP to 60", "NPA_Opportunity": "Yes - Potential NPA, entire scope", "F_LPP_Footage_": 740, "F_LPP_Mileage__": 0.14, "lat": 42.6581457059421, "lon": -71.3114298248283, "Mapped_address": "41 Dalton St, Lowell, MA 01850, USA", "FID": 68}}, {"type": "Feature", "id": 69, "geometry": {"type": "Point", "coordinates": [-71.3121631618513, 42.6577672326928]}, "properties": {"Line": 43, "Company": "Colonial Gas", "Division": "Lowell", "Town": "Lowell", "Town_Code": "LOW", "State": "MA", "Description__street_segment_": "28-56 AIKEN AV, LOW, & 37-45 DALTON ST", "Diameter": 6, "Material": "Cast Iron", "Operating_Pressure": "LP to 60", "NPA_Opportunity": "Yes - Potential NPA, entire scope", "F_LPP_Footage_": 740, "F_LPP_Mileage__": 0.14, "lat": 42.6577672326928, "lon": -71.3121631618513, "Mapped_address": "42 Aiken Ave, Lowell, MA 01850, USA", "FID": 69}}, {"type": "Feature", "id": 70, "geometry": {"type": "Point", "coordinates": [-71.2962577351875, 42.6484867786059]}, "properties": {"Line": 44, "Company": "Colonial Gas", "Division": "Lowell", "Town": "Lowell", "Town_Code": "LOW", "State": "MA", "Description__street_segment_": "3-143 DURANT ST, LOW, & THIRDT ST, SIMPSON ST", "Diameter": 4, "Material": "Cast Iron", "Operating_Pressure": "LP to 60", "NPA_Opportunity": "Yes - Potential NPA, entire scope", "F_LPP_Footage_": 4020, "F_LPP_Mileage__": 0.76, "lat": 42.6484867786059, "lon": -71.2962577351875, "Mapped_address": "73 Durant St, Lowell, MA 01850, USA", "FID": 70}}, {"type": "Feature", "id": 71, "geometry": {"type": "Point", "coordinates": [-71.298427, 42.6494317]}, "properties": {"Line": 44, "Company": "Colonial Gas", "Division": "Lowell", "Town": "Lowell", "Town_Code": "LOW", "State": "MA", "Description__street_segment_": "3-143 DURANT ST, LOW, & THIRDT ST, SIMPSON ST", "Diameter": 4, "Material": "Cast Iron", "Operating_Pressure": "LP to 60", "NPA_Opportunity": "Yes - Potential NPA, entire scope", "F_LPP_Footage_": 4020, "F_LPP_Mileage__": 0.76, "lat": 42.6494317, "lon": -71.298427, "Mapped_address": "Simpson St, Lowell, MA 01850, USA", "FID": 71}}, {"type": "Feature", "id": 72, "geometry": {"type": "Point", "coordinates": [-71.299460757059, 42.6519702431985]}, "properties": {"Line": 45, "Company": "Colonial Gas", "Division": "Lowell", "Town": "Lowell", "Town_Code": "LOW", "State": "MA", "Description__street_segment_": "3-148 MYRTLE ST, LOW, & FIFTH ST, READ ST, SIXT", "Diameter": 4, "Material": "Cast Iron", "Operating_Pressure": "LP to 60", "NPA_Opportunity": "Yes - Potential NPA, entire scope", "F_LPP_Footage_": 2625, "F_LPP_Mileage__": 0.5, "lat": 42.6519702431985, "lon": -71.299460757059, "Mapped_address": "75 Myrtle St, Lowell, MA 01850, USA", "FID": 72}}, {"type": "Feature", "id": 73, "geometry": {"type": "Point", "coordinates": [-71.3018079, 42.6505886]}, "properties": {"Line": 45, "Company": "Colonial Gas", "Division": "Lowell", "Town": "Lowell", "Town_Code": "LOW", "State": "MA", "Description__street_segment_": "3-148 MYRTLE ST, LOW, & FIFTH ST, READ ST, SIXT", "Diameter": 4, "Material": "Cast Iron", "Operating_Pressure": "LP to 60", "NPA_Opportunity": "Yes - Potential NPA, entire scope", "F_LPP_Footage_": 2625, "F_LPP_Mileage__": 0.5, "lat": 42.6505886, "lon": -71.3018079, "Mapped_address": "Read St, Lowell, MA 01850, USA", "FID": 73}}, {"type": "Feature", "id": 74, "geometry": {"type": "Point", "coordinates": [-71.3106834, 42.6451367]}, "properties": {"Line": 46, "Company": "Colonial Gas", "Division": "Lowell", "Town": "Lowell", "Town_Code": "LOW", "State": "MA", "Description__street_segment_": "33-194 MIDDLE ST, LOW", "Diameter": 6, "Material": "Cast Iron", "Operating_Pressure": "LP", "NPA_Opportunity": "Yes - Potential NPA, entire scope", "F_LPP_Footage_": 1005, "F_LPP_Mileage__": 0.19, "lat": 42.6451367, "lon": -71.3106834, "Mapped_address": "113 Middle St, Lowell, MA 01852, USA", "FID": 74}}, {"type": "Feature", "id": 75, "geometry": {"type": "Point", "coordinates": [-71.2950584296983, 42.649867930021]}, "properties": {"Line": 47, "Company": "Colonial Gas", "Division": "Lowell", "Town": "Lowell", "Town_Code": "LOW", "State": "MA", "Description__street_segment_": "35-138 LLEWELLYN ST, LOW, & 196-266 THIRD ST", "Diameter": 4, "Material": "Steel-WI", "Operating_Pressure": "LP to 60", "NPA_Opportunity": "Yes - Potential NPA, entire scope", "F_LPP_Footage_": 3685, "F_LPP_Mileage__": 0.7, "lat": 42.649867930021, "lon": -71.2950584296983, "Mapped_address": "231 3rd St, Lowell, MA 01850, USA", "FID": 75}}, {"type": "Feature", "id": 76, "geometry": {"type": "Point", "coordinates": [-71.2930461347986, 42.6485258184637]}, "properties": {"Line": 47, "Company": "Colonial Gas", "Division": "Lowell", "Town": "Lowell", "Town_Code": "LOW", "State": "MA", "Description__street_segment_": "35-138 LLEWELLYN ST, LOW, & 196-266 THIRD ST", "Diameter": 4, "Material": "Steel-WI", "Operating_Pressure": "LP to 60", "NPA_Opportunity": "Yes - Potential NPA, entire scope", "F_LPP_Footage_": 3685, "F_LPP_Mileage__": 0.7, "lat": 42.6485258184637, "lon": -71.2930461347986, "Mapped_address": "86 Llewellyn St, Lowell, MA 01850, USA", "FID": 76}}, {"type": "Feature", "id": 77, "geometry": {"type": "Point", "coordinates": [-71.3469515478271, 42.6336080237713]}, "properties": {"Line": 48, "Company": "Colonial Gas", "Division": "Lowell", "Town": "Lowell", "Town_Code": "LOW", "State": "MA", "Description__street_segment_": "378-475 PRINCETON BLVD, LOW, & 24-62 MONADNOCK AV", "Diameter": 4, "Material": "Cast Iron", "Operating_Pressure": "LP to 60", "NPA_Opportunity": "Yes - Potential NPA, entire scope", "F_LPP_Footage_": 4160, "F_LPP_Mileage__": 0.79, "lat": 42.6336080237713, "lon": -71.3469515478271, "Mapped_address": "426 Princeton Blvd, Lowell, MA 01851, USA", "FID": 77}}, {"type": "Feature", "id": 78, "geometry": {"type": "Point", "coordinates": [-71.3459510888393, 42.6327032231751]}, "properties": {"Line": 48, "Company": "Colonial Gas", "Division": "Lowell", "Town": "Lowell", "Town_Code": "LOW", "State": "MA", "Description__street_segment_": "378-475 PRINCETON BLVD, LOW, & 24-62 MONADNOCK AV", "Diameter": 4, "Material": "Cast Iron", "Operating_Pressure": "LP to 60", "NPA_Opportunity": "Yes - Potential NPA, entire scope", "F_LPP_Footage_": 4160, "F_LPP_Mileage__": 0.79, "lat": 42.6327032231751, "lon": -71.3459510888393, "Mapped_address": "43 Monadnock Ave, Lowell, MA 01851, USA", "FID": 78}}, {"type": "Feature", "id": 79, "geometry": {"type": "Point", "coordinates": [-71.2966084446449, 42.6378750879467]}, "properties": {"Line": 49, "Company": "Colonial Gas", "Division": "Lowell", "Town": "Lowell", "Town_Code": "LOW", "State": "MA", "Description__street_segment_": "4-25 ASTOR ST, LOW", "Diameter": 6, "Material": "Cast Iron", "Operating_Pressure": "LP", "NPA_Opportunity": "No - Impact to System Integration", "F_LPP_Footage_": 290, "F_LPP_Mileage__": 0.05, "lat": 42.6378750879467, "lon": -71.2966084446449, "Mapped_address": "14 Astor St, Lowell, MA 01852, USA", "FID": 79}}, {"type": "Feature", "id": 80, "geometry": {"type": "Point", "coordinates": [-71.2869229763911, 42.6180528802651]}, "properties": {"Line": 50, "Company": "Colonial Gas", "Division": "Lowell", "Town": "Lowell", "Town_Code": "LOW", "State": "MA", "Description__street_segment_": "5-86 CHRISTMAN AV, LOW, & BERNIER ST, JEAN AV", "Diameter": 4, "Material": "Steel-WI", "Operating_Pressure": "LP to 60", "NPA_Opportunity": "Yes - Potential NPA, entire scope", "F_LPP_Footage_": 2805, "F_LPP_Mileage__": 0.53, "lat": 42.6180528802651, "lon": -71.2869229763911, "Mapped_address": "45 Christman Ave, Lowell, MA 01852, USA", "FID": 80}}, {"type": "Feature", "id": 81, "geometry": {"type": "Point", "coordinates": [-71.2850894, 42.6176471]}, "properties": {"Line": 50, "Company": "Colonial Gas", "Division": "Lowell", "Town": "Lowell", "Town_Code": "LOW", "State": "MA", "Description__street_segment_": "5-86 CHRISTMAN AV, LOW, & BERNIER ST, JEAN AV", "Diameter": 4, "Material": "Steel-WI", "Operating_Pressure": "LP to 60", "NPA_Opportunity": "Yes - Potential NPA, entire scope", "F_LPP_Footage_": 2805, "F_LPP_Mileage__": 0.53, "lat": 42.6176471, "lon": -71.2850894, "Mapped_address": "Bernier St, Lowell, MA 01852, USA", "FID": 81}}, {"type": "Feature", "id": 82, "geometry": {"type": "Point", "coordinates": [-71.2862836, 42.6174709]}, "properties": {"Line": 50, "Company": "Colonial Gas", "Division": "Lowell", "Town": "Lowell", "Town_Code": "LOW", "State": "MA", "Description__street_segment_": "5-86 CHRISTMAN AV, LOW, & BERNIER ST, JEAN AV", "Diameter": 4, "Material": "Steel-WI", "Operating_Pressure": "LP to 60", "NPA_Opportunity": "Yes - Potential NPA, entire scope", "F_LPP_Footage_": 2805, "F_LPP_Mileage__": 0.53, "lat": 42.6174709, "lon": -71.2862836, "Mapped_address": "Jean Ave, Lowell, MA 01852, USA", "FID": 82}}, {"type": "Feature", "id": 83, "geometry": {"type": "Point", "coordinates": [-71.3196361496569, 42.6383064006424]}, "properties": {"Line": 51, "Company": "Colonial Gas", "Division": "Lowell", "Town": "Lowell", "Town_Code": "LOW", "State": "MA", "Description__street_segment_": "6-14 MCINTIRE ST, LOW, & 3-39 MARSHALL ST", "Diameter": 4, "Material": "Steel-WI", "Operating_Pressure": "LP", "NPA_Opportunity": "Yes - Potential NPA, entire scope", "F_LPP_Footage_": 685, "F_LPP_Mileage__": 0.13, "lat": 42.6383064006424, "lon": -71.3196361496569, "Mapped_address": "10 McIntyre St, Lowell, MA 01851, USA", "FID": 83}}, {"type": "Feature", "id": 84, "geometry": {"type": "Point", "coordinates": [-71.3189038, 42.6381117]}, "properties": {"Line": 51, "Company": "Colonial Gas", "Division": "Lowell", "Town": "Lowell", "Town_Code": "LOW", "State": "MA", "Description__street_segment_": "6-14 MCINTIRE ST, LOW, & 3-39 MARSHALL ST", "Diameter": 4, "Material": "Steel-WI", "Operating_Pressure": "LP", "NPA_Opportunity": "Yes - Potential NPA, entire scope", "F_LPP_Footage_": 685, "F_LPP_Mileage__": 0.13, "lat": 42.6381117, "lon": -71.3189038, "Mapped_address": "21 Marshall St, Lowell, MA 01851, USA", "FID": 84}}, {"type": "Feature", "id": 85, "geometry": {"type": "Point", "coordinates": [-71.3131223932768, 42.6600256841586]}, "properties": {"Line": 52, "Company": "Colonial Gas", "Division": "Lowell", "Town": "Lowell", "Town_Code": "LOW", "State": "MA", "Description__street_segment_": "66-187 DALTON ST, LOW, & 7-91 EXETER ST", "Diameter": 4, "Material": "Cast Iron", "Operating_Pressure": "LP to 60", "NPA_Opportunity": "Yes - Potential NPA, entire scope", "F_LPP_Footage_": 4080, "F_LPP_Mileage__": 0.77, "lat": 42.6600256841586, "lon": -71.3131223932768, "Mapped_address": "126 Dalton St, Lowell, MA 01850, USA", "FID": 85}}, {"type": "Feature", "id": 86, "geometry": {"type": "Point", "coordinates": [-71.312322500878, 42.6589414520721]}, "properties": {"Line": 52, "Company": "Colonial Gas", "Division": "Lowell", "Town": "Lowell", "Town_Code": "LOW", "State": "MA", "Description__street_segment_": "66-187 DALTON ST, LOW, & 7-91 EXETER ST", "Diameter": 4, "Material": "Cast Iron", "Operating_Pressure": "LP to 60", "NPA_Opportunity": "Yes - Potential NPA, entire scope", "F_LPP_Footage_": 4080, "F_LPP_Mileage__": 0.77, "lat": 42.6589414520721, "lon": -71.312322500878, "Mapped_address": "49 Exeter St, Lowell, MA 01850, USA", "FID": 86}}, {"type": "Feature", "id": 87, "geometry": {"type": "Point", "coordinates": [-71.3258366383447, 42.6281932850728]}, "properties": {"Line": 53, "Company": "Colonial Gas", "Division": "Lowell", "Town": "Lowell", "Town_Code": "LOW", "State": "MA", "Description__street_segment_": "7-194 A ST, LOW", "Diameter": 6, "Material": "Cast Iron", "Operating_Pressure": "LP to 60", "NPA_Opportunity": "Yes - Potential NPA, entire scope", "F_LPP_Footage_": 1920, "F_LPP_Mileage__": 0.36, "lat": 42.6281932850728, "lon": -71.3258366383447, "Mapped_address": "100 A St, Lowell, MA 01851, USA", "FID": 87}}, {"type": "Feature", "id": 88, "geometry": {"type": "Point", "coordinates": [-71.302084397354, 42.6249067020613]}, "properties": {"Line": 54, "Company": "Colonial Gas", "Division": "Lowell", "Town": "Lowell", "Town_Code": "LOW", "State": "MA", "Description__street_segment_": "76-179 MEADOWCROFT ST, LOW, & BOLT ST, WASHER ST", "Diameter": 6, "Material": "Cast Iron", "Operating_Pressure": "LP", "NPA_Opportunity": "No - Impact to System Integration", "F_LPP_Footage_": 2395, "F_LPP_Mileage__": 0.45, "lat": 42.6249067020613, "lon": -71.302084397354, "Mapped_address": "127 Meadowcroft St, Lowell, MA 01852, USA", "FID": 88}}, {"type": "Feature", "id": 89, "geometry": {"type": "Point", "coordinates": [-71.300166, 42.6252347]}, "properties": {"Line": 54, "Company": "Colonial Gas", "Division": "Lowell", "Town": "Lowell", "Town_Code": "LOW", "State": "MA", "Description__street_segment_": "76-179 MEADOWCROFT ST, LOW, & BOLT ST, WASHER ST", "Diameter": 6, "Material": "Cast Iron", "Operating_Pressure": "LP", "NPA_Opportunity": "No - Impact to System Integration", "F_LPP_Footage_": 2395, "F_LPP_Mileage__": 0.45, "lat": 42.6252347, "lon": -71.300166, "Mapped_address": "Bolt St, Lowell, MA 01852, USA", "FID": 89}}, {"type": "Feature", "id": 90, "geometry": {"type": "Point", "coordinates": [-71.300459, 42.6246043]}, "properties": {"Line": 54, "Company": "Colonial Gas", "Division": "Lowell", "Town": "Lowell", "Town_Code": "LOW", "State": "MA", "Description__street_segment_": "76-179 MEADOWCROFT ST, LOW, & BOLT ST, WASHER ST", "Diameter": 6, "Material": "Cast Iron", "Operating_Pressure": "LP", "NPA_Opportunity": "No - Impact to System Integration", "F_LPP_Footage_": 2395, "F_LPP_Mileage__": 0.45, "lat": 42.6246043, "lon": -71.300459, "Mapped_address": "Washer St, Lowell, MA 01852, USA", "FID": 90}}, {"type": "Feature", "id": 91, "geometry": {"type": "Point", "coordinates": [-71.3180565424099, 42.661686448354]}, "properties": {"Line": 55, "Company": "Colonial Gas", "Division": "Lowell", "Town": "Lowell", "Town_Code": "LOW", "State": "MA", "Description__street_segment_": "922-1014 LAKEVIEW AV, LOW, & CAMPAW ST, OTTAWA ST", "Diameter": 4, "Material": "Cast Iron", "Operating_Pressure": "LP", "NPA_Opportunity": "Yes - Potential NPA, partial scope", "F_LPP_Footage_": 3460, "F_LPP_Mileage__": 0.66, "lat": 42.661686448354, "lon": -71.3180565424099, "Mapped_address": "968 Lakeview Ave, Lowell, MA 01850, USA", "FID": 91}}, {"type": "Feature", "id": 92, "geometry": {"type": "Point", "coordinates": [-71.3175151, 42.6608562]}, "properties": {"Line": 55, "Company": "Colonial Gas", "Division": "Lowell", "Town": "Lowell", "Town_Code": "LOW", "State": "MA", "Description__street_segment_": "922-1014 LAKEVIEW AV, LOW, & CAMPAW ST, OTTAWA ST", "Diameter": 4, "Material": "Cast Iron", "Operating_Pressure": "LP", "NPA_Opportunity": "Yes - Potential NPA, partial scope", "F_LPP_Footage_": 3460, "F_LPP_Mileage__": 0.66, "lat": 42.6608562, "lon": -71.3175151, "Mapped_address": "Campaw St, Lowell, MA 01850, USA", "FID": 92}}, {"type": "Feature", "id": 93, "geometry": {"type": "Point", "coordinates": [-71.3178987, 42.6613307]}, "properties": {"Line": 55, "Company": "Colonial Gas", "Division": "Lowell", "Town": "Lowell", "Town_Code": "LOW", "State": "MA", "Description__street_segment_": "922-1014 LAKEVIEW AV, LOW, & CAMPAW ST, OTTAWA ST", "Diameter": 4, "Material": "Cast Iron", "Operating_Pressure": "LP", "NPA_Opportunity": "Yes - Potential NPA, partial scope", "F_LPP_Footage_": 3460, "F_LPP_Mileage__": 0.66, "lat": 42.6613307, "lon": -71.3178987, "Mapped_address": "Ottawa St, Lowell, MA 01850, USA", "FID": 93}}, {"type": "Feature", "id": 94, "geometry": {"type": "Point", "coordinates": [-71.3291199500734, 42.653785236492]}, "properties": {"Line": 56, "Company": "Colonial Gas", "Division": "Lowell", "Town": "Lowell", "Town_Code": "LOW", "State": "MA", "Description__street_segment_": "9-35 GERSHOM AV, LOW, & 52-134 MT HOPE ST", "Diameter": 6, "Material": "Cast Iron", "Operating_Pressure": "LP to 60", "NPA_Opportunity": "Yes - Potential NPA, entire scope", "F_LPP_Footage_": 1520, "F_LPP_Mileage__": 0.29, "lat": 42.653785236492, "lon": -71.3291199500734, "Mapped_address": "22 Gershom Ave, Lowell, MA 01854, USA", "FID": 94}}, {"type": "Feature", "id": 95, "geometry": {"type": "Point", "coordinates": [-71.3302973896767, 42.6537611057288]}, "properties": {"Line": 56, "Company": "Colonial Gas", "Division": "Lowell", "Town": "Lowell", "Town_Code": "LOW", "State": "MA", "Description__street_segment_": "9-35 GERSHOM AV, LOW, & 52-134 MT HOPE ST", "Diameter": 6, "Material": "Cast Iron", "Operating_Pressure": "LP to 60", "NPA_Opportunity": "Yes - Potential NPA, entire scope", "F_LPP_Footage_": 1520, "F_LPP_Mileage__": 0.29, "lat": 42.6537611057288, "lon": -71.3302973896767, "Mapped_address": "93 Mt Hope St, Lowell, MA 01854, USA", "FID": 95}}, {"type": "Feature", "id": 96, "geometry": {"type": "Point", "coordinates": [-71.2687043142599, 42.6257230302239]}, "properties": {"Line": 57, "Company": "Colonial Gas", "Division": "Lowell", "Town": "Tewksbury", "Town_Code": "TEW", "State": "MA", "Description__street_segment_": "1-346 MAIN ST, TEW, & OLD MAIN ST", "Diameter": 10, "Material": "Cast Iron", "Operating_Pressure": "LP to 60", "NPA_Opportunity": "Yes - Potential NPA, entire scope", "F_LPP_Footage_": 4590, "F_LPP_Mileage__": 0.87, "lat": 42.6257230302239, "lon": -71.2687043142599, "Mapped_address": "173 Main St, Tewksbury, MA 01876, USA", "FID": 96}}, {"type": "Feature", "id": 97, "geometry": {"type": "Point", "coordinates": [-71.2644581, 42.6239515]}, "properties": {"Line": 57, "Company": "Colonial Gas", "Division": "Lowell", "Town": "Tewksbury", "Town_Code": "TEW", "State": "MA", "Description__street_segment_": "1-346 MAIN ST, TEW, & OLD MAIN ST", "Diameter": 10, "Material": "Cast Iron", "Operating_Pressure": "LP to 60", "NPA_Opportunity": "Yes - Potential NPA, entire scope", "F_LPP_Footage_": 4590, "F_LPP_Mileage__": 0.87, "lat": 42.6239515, "lon": -71.2644581, "Mapped_address": "Old Main St, Tewksbury, MA 01876, USA", "FID": 97}}, {"type": "Feature", "id": 98, "geometry": {"type": "Point", "coordinates": [-71.232492788868, 42.5978379271559]}, "properties": {"Line": 58, "Company": "Colonial Gas", "Division": "Lowell", "Town": "Tewksbury", "Town_Code": "TEW", "State": "MA", "Description__street_segment_": "2-15 BOISVERT RD, TEW", "Diameter": 2, "Material": "Steel-WI", "Operating_Pressure": "60", "NPA_Opportunity": "Yes - Potential NPA", "F_LPP_Footage_": 760, "F_LPP_Mileage__": 0.14, "lat": 42.5978379271559, "lon": -71.232492788868, "Mapped_address": "8 Boisvert Rd, Tewksbury, MA 01876, USA", "FID": 98}}, {"type": "Feature", "id": 99, "geometry": {"type": "Point", "coordinates": [-71.4166235, 42.6973907]}, "properties": {"Line": 59, "Company": "Colonial Gas", "Division": "Lowell", "Town": "Tyngsboro", "Town_Code": "TYN", "State": "MA", "Description__street_segment_": "1-4 ASHFORD DR, TYN", "Diameter": 2, "Material": "Plastic", "Operating_Pressure": "60", "NPA_Opportunity": "Yes - Potential NPA, entire scope", "F_LPP_Footage_": 375, "F_LPP_Mileage__": 0.07, "lat": 42.6973907, "lon": -71.4166235, "Mapped_address": "2 Ashford Dr, Tyngsborough, MA 01879, USA", "FID": 99}}, {"type": "Feature", "id": 100, "geometry": {"type": "Point", "coordinates": [-71.1973149014386, 42.5539288941656]}, "properties": {"Line": 60, "Company": "Colonial Gas", "Division": "Lowell", "Town": "Wilmington", "Town_Code": "WIL", "State": "MA", "Description__street_segment_": "25-33 HOUGHTON RD, WIL", "Diameter": 2, "Material": "Plastic", "Operating_Pressure": "60", "NPA_Opportunity": "Yes - Potential NPA, entire scope", "F_LPP_Footage_": 415, "F_LPP_Mileage__": 0.08, "lat": 42.5539288941656, "lon": -71.1973149014386, "Mapped_address": "29 Houghton Rd, Wilmington, MA 01887, USA", "FID": 100}}]}